{"type": "FeatureCollection", "features": [{"type": "Feature", "properties": {"code_insee": "33484", "commune": "Saint-Symphorien", "obligations": 1132, "constructions": 2086, "surface_nette_ha": 463.1, "dont_chez_voisins_non_batis_ha": 199.0, "en_lisiere": 218, "priorite_forte_ou_plus": 344}, "geometry": {"type": "Polygon", "coordinates": [[[-0.63179, 44.39967], [-0.6336, 44.40008], [-0.63569, 44.39925], [-0.63811, 44.39913], [-0.63895, 44.39947], [-0.63994, 44.39936], [-0.64106, 44.39996], [-0.64235, 44.40013], [-0.62749, 44.40589], [-0.6266, 44.40721], [-0.62596, 44.4072], [-0.62587, 44.41167], [-0.62547, 44.41243], [-0.62732, 44.42927], [-0.61047, 44.42882], [-0.61133, 44.4318], [-0.60082, 44.4323], [-0.59697, 44.43311], [-0.59496, 44.43225], [-0.59354, 44.43238], [-0.59064, 44.4321], [-0.58379, 44.43241], [-0.58324, 44.43256], [-0.5817, 44.43395], [-0.57603, 44.43666], [-0.57214, 44.43951], [-0.57087, 44.43918], [-0.56618, 44.44196], [-0.56533, 44.44212], [-0.5649, 44.44267], [-0.56376, 44.44276], [-0.56289, 44.44481], [-0.56314, 44.44601], [-0.56272, 44.45036], [-0.56401, 44.45043], [-0.56403, 44.45083], [-0.56637, 44.45104], [-0.57489, 44.45885], [-0.58226, 44.45897], [-0.58231, 44.46034], [-0.58717, 44.4627], [-0.58471, 44.46536], [-0.57801, 44.46631], [-0.57677, 44.46687], [-0.57671, 44.46869], [-0.57386, 44.46879], [-0.57015, 44.46813], [-0.56535, 44.46795], [-0.55896, 44.46924], [-0.55788, 44.47006], [-0.55852, 44.47239], [-0.55408, 44.47706], [-0.5508, 44.48527], [-0.54451, 44.48686], [-0.54477, 44.48748], [-0.54377, 44.48759], [-0.53049, 44.4863], [-0.52972, 44.48543], [-0.5287, 44.48546], [-0.528, 44.48605], [-0.5263, 44.48662], [-0.5248, 44.48624], [-0.52477, 44.48681], [-0.52429, 44.48685], [-0.52413, 44.4875], [-0.52352, 44.4849], [-0.52563, 44.48386], [-0.5264, 44.48294], [-0.52202, 44.48179], [-0.51962, 44.48261], [-0.51886, 44.48259], [-0.50917, 44.48026], [-0.50495, 44.47825], [-0.50656, 44.47416], [-0.50389, 44.47337], [-0.50036, 44.47282], [-0.49173, 44.46898], [-0.48524, 44.4657], [-0.48141, 44.46487], [-0.47974, 44.45737], [-0.47788, 44.45753], [-0.47809, 44.45637], [-0.47978, 44.45625], [-0.47993, 44.45586], [-0.48175, 44.4463], [-0.48377, 44.44591], [-0.48408, 44.44534], [-0.48506, 44.44542], [-0.48579, 44.44444], [-0.48422, 44.44076], [-0.48317, 44.43596], [-0.48297, 44.43556], [-0.48076, 44.43621], [-0.4799, 44.43545], [-0.47264, 44.4378], [-0.46985, 44.4319], [-0.47612, 44.4302], [-0.47594, 44.42533], [-0.48005, 44.42461], [-0.48112, 44.42201], [-0.47465, 44.42229], [-0.47452, 44.42101], [-0.47479, 44.4187], [-0.47652, 44.41617], [-0.47716, 44.41439], [-0.47791, 44.41407], [-0.47993, 44.41212], [-0.47409, 44.40902], [-0.46995, 44.40767], [-0.46978, 44.40298], [-0.47051, 44.4005], [-0.459, 44.40049], [-0.45868, 44.39474], [-0.45909, 44.39458], [-0.45908, 44.39137], [-0.46002, 44.38884], [-0.46039, 44.38887], [-0.46052, 44.38856], [-0.4648, 44.38823], [-0.46675, 44.38774], [-0.47112, 44.38866], [-0.47534, 44.38862], [-0.47853, 44.3868], [-0.48039, 44.3861], [-0.49255, 44.3826], [-0.5081, 44.37924], [-0.50839, 44.38018], [-0.51676, 44.37957], [-0.52418, 44.37443], [-0.52638, 44.37473], [-0.52807, 44.3746], [-0.52812, 44.36454], [-0.54518, 44.36989], [-0.553, 44.37205], [-0.55581, 44.37328], [-0.56078, 44.37488], [-0.57073, 44.38251], [-0.60275, 44.39081], [-0.63179, 44.39967]]]}}, {"type": "Feature", "properties": {"code_insee": "33197", "commune": "Guillos", "obligations": 294, "constructions": 504, "surface_nette_ha": 117.7, "dont_chez_voisins_non_batis_ha": 65.9, "en_lisiere": 94, "priorite_forte_ou_plus": 82}, "geometry": {"type": "Polygon", "coordinates": [[[-0.48066, 44.55836], [-0.48081, 44.55363], [-0.49224, 44.54388], [-0.50083, 44.52629], [-0.51922, 44.52954], [-0.53733, 44.53568], [-0.56633, 44.5461], [-0.55012, 44.55966], [-0.54625, 44.57178], [-0.54349, 44.57069], [-0.54133, 44.57077], [-0.53313, 44.56919], [-0.51907, 44.56979], [-0.51553, 44.56962], [-0.5146, 44.56987], [-0.50811, 44.56994], [-0.49756, 44.5742], [-0.49136, 44.57516], [-0.48787, 44.57501], [-0.48066, 44.55836]]]}}, {"type": "Feature", "properties": {"code_insee": "40171", "commune": "Mano", "obligations": 182, "constructions": 283, "surface_nette_ha": 107.1, "dont_chez_voisins_non_batis_ha": 58.0, "en_lisiere": 76, "priorite_forte_ou_plus": 91}, "geometry": {"type": "Polygon", "coordinates": [[[-0.69272, 44.4406], [-0.69039, 44.44104], [-0.68803, 44.44273], [-0.684, 44.44343], [-0.68162, 44.44423], [-0.67979, 44.44697], [-0.67966, 44.4482], [-0.67864, 44.45023], [-0.6825, 44.45085], [-0.6793, 44.45449], [-0.67787, 44.45491], [-0.67807, 44.45583], [-0.67653, 44.45665], [-0.6762, 44.45732], [-0.64271, 44.45013], [-0.63917, 44.44875], [-0.62772, 44.44289], [-0.62741, 44.42967], [-0.62547, 44.41243], [-0.62587, 44.41167], [-0.62601, 44.40714], [-0.6266, 44.40721], [-0.62749, 44.40589], [-0.64278, 44.4003], [-0.67296, 44.40106], [-0.70198, 44.40217], [-0.71064, 44.40345], [-0.71387, 44.41143], [-0.7152, 44.41378], [-0.71474, 44.41431], [-0.71333, 44.4144], [-0.71194, 44.41363], [-0.71054, 44.41359], [-0.70914, 44.41298], [-0.70749, 44.41681], [-0.70348, 44.41927], [-0.70092, 44.42593], [-0.69867, 44.44283], [-0.69272, 44.4406]]]}}, {"type": "Feature", "properties": {"code_insee": "33077", "commune": "Cabanac-et-Villagrains", "obligations": 1111, "constructions": 1771, "surface_nette_ha": 372.3, "dont_chez_voisins_non_batis_ha": 171.5, "en_lisiere": 222, "priorite_forte_ou_plus": 236}, "geometry": {"type": "Polygon", "coordinates": [[[-0.46653, 44.60595], [-0.47788, 44.59499], [-0.48227, 44.59006], [-0.48309, 44.58861], [-0.48337, 44.58694], [-0.48394, 44.58621], [-0.48787, 44.57501], [-0.49136, 44.57516], [-0.49756, 44.5742], [-0.50811, 44.56994], [-0.5146, 44.56987], [-0.51553, 44.56962], [-0.51907, 44.56979], [-0.53313, 44.56919], [-0.54133, 44.57077], [-0.54349, 44.57069], [-0.54625, 44.57178], [-0.55012, 44.55966], [-0.56633, 44.5461], [-0.58177, 44.54839], [-0.58414, 44.54867], [-0.58628, 44.54855], [-0.58789, 44.54936], [-0.58941, 44.54925], [-0.5902, 44.54944], [-0.5907, 44.55], [-0.5914, 44.54978], [-0.59225, 44.5505], [-0.59337, 44.54989], [-0.59373, 44.54997], [-0.59358, 44.55066], [-0.59416, 44.55101], [-0.59696, 44.55099], [-0.59896, 44.55181], [-0.59925, 44.5526], [-0.59967, 44.55236], [-0.60022, 44.5529], [-0.60167, 44.55286], [-0.60213, 44.555], [-0.60355, 44.55505], [-0.60415, 44.55625], [-0.60466, 44.55635], [-0.60398, 44.55698], [-0.60441, 44.5572], [-0.60383, 44.55834], [-0.60439, 44.55899], [-0.60612, 44.5597], [-0.60681, 44.56038], [-0.60637, 44.5607], [-0.60664, 44.56133], [-0.60723, 44.5619], [-0.60753, 44.56184], [-0.60742, 44.56257], [-0.60822, 44.56286], [-0.60804, 44.56333], [-0.60866, 44.56394], [-0.61262, 44.57447], [-0.61593, 44.58199], [-0.61271, 44.59563], [-0.60901, 44.60364], [-0.58213, 44.61828], [-0.57945, 44.62002], [-0.56457, 44.62786], [-0.56274, 44.62899], [-0.56241, 44.6303], [-0.56199, 44.62984], [-0.5612, 44.62978], [-0.56018, 44.63041], [-0.55953, 44.63039], [-0.55779, 44.62967], [-0.55717, 44.62986], [-0.55626, 44.63085], [-0.55568, 44.63071], [-0.55561, 44.63039], [-0.55472, 44.63029], [-0.5538, 44.6308], [-0.55196, 44.63053], [-0.55081, 44.63132], [-0.54908, 44.63087], [-0.5485, 44.63118], [-0.54785, 44.63081], [-0.54608, 44.63136], [-0.54222, 44.63104], [-0.54221, 44.63068], [-0.54073, 44.63022], [-0.5393, 44.63048], [-0.53702, 44.63036], [-0.5364, 44.63053], [-0.53595, 44.63118], [-0.53419, 44.63075], [-0.53299, 44.6308], [-0.53172, 44.63031], [-0.53101, 44.63084], [-0.52997, 44.63089], [-0.5285, 44.63012], [-0.52687, 44.63003], [-0.52523, 44.63043], [-0.52408, 44.63023], [-0.52293, 44.63104], [-0.52185, 44.63096], [-0.52176, 44.63155], [-0.52075, 44.63167], [-0.52023, 44.63144], [-0.52021, 44.63065], [-0.51966, 44.6306], [-0.51885, 44.62896], [-0.51802, 44.62887], [-0.51635, 44.62804], [-0.51571, 44.62743], [-0.51576, 44.62697], [-0.51461, 44.62677], [-0.51391, 44.62603], [-0.51146, 44.62483], [-0.51108, 44.62413], [-0.50847, 44.62274], [-0.50623, 44.62216], [-0.50295, 44.6195], [-0.48881, 44.61241], [-0.46653, 44.60595]]]}}, {"type": "Feature", "properties": {"code_insee": "33026", "commune": "Balizac", "obligations": 375, "constructions": 650, "surface_nette_ha": 165.8, "dont_chez_voisins_non_batis_ha": 89.4, "en_lisiere": 149, "priorite_forte_ou_plus": 120}, "geometry": {"type": "Polygon", "coordinates": [[[-0.42417, 44.51085], [-0.42673, 44.5091], [-0.43176, 44.50426], [-0.42393, 44.50341], [-0.424, 44.50242], [-0.42354, 44.50189], [-0.42222, 44.50154], [-0.42026, 44.50037], [-0.41867, 44.5003], [-0.41709, 44.49966], [-0.41572, 44.4996], [-0.41378, 44.498], [-0.41349, 44.49731], [-0.41061, 44.4962], [-0.40957, 44.4952], [-0.40568, 44.49431], [-0.40359, 44.493], [-0.40349, 44.49147], [-0.40459, 44.49056], [-0.40688, 44.48969], [-0.40665, 44.48898], [-0.40528, 44.48888], [-0.40617, 44.48662], [-0.40282, 44.48525], [-0.4023, 44.48619], [-0.4015, 44.48619], [-0.40235, 44.48313], [-0.40158, 44.48168], [-0.40215, 44.48149], [-0.4032, 44.48172], [-0.40193, 44.47932], [-0.40229, 44.47916], [-0.39947, 44.47522], [-0.39912, 44.47124], [-0.39874, 44.47126], [-0.39879, 44.47078], [-0.40087, 44.4687], [-0.4005, 44.4682], [-0.40404, 44.4599], [-0.40877, 44.45364], [-0.41123, 44.45163], [-0.41971, 44.45583], [-0.42014, 44.45631], [-0.41963, 44.45741], [-0.4217, 44.45857], [-0.42174, 44.45991], [-0.42531, 44.46169], [-0.43188, 44.46607], [-0.43249, 44.46555], [-0.43422, 44.46588], [-0.43438, 44.46557], [-0.43592, 44.46582], [-0.43624, 44.46625], [-0.43777, 44.46555], [-0.44054, 44.46077], [-0.44143, 44.45988], [-0.44128, 44.45922], [-0.44224, 44.45908], [-0.44347, 44.45986], [-0.44519, 44.45819], [-0.45055, 44.45774], [-0.4501, 44.45692], [-0.4512, 44.45633], [-0.45202, 44.4566], [-0.4533, 44.45594], [-0.45375, 44.45599], [-0.45492, 44.4546], [-0.45895, 44.45524], [-0.46415, 44.45487], [-0.46506, 44.45327], [-0.46799, 44.45315], [-0.46739, 44.45564], [-0.46808, 44.45702], [-0.46801, 44.45764], [-0.47027, 44.45812], [-0.47974, 44.45737], [-0.48141, 44.46487], [-0.48524, 44.4657], [-0.49173, 44.46898], [-0.50036, 44.47282], [-0.5011, 44.47289], [-0.5012, 44.47648], [-0.49933, 44.4779], [-0.49829, 44.48125], [-0.50095, 44.48292], [-0.50024, 44.48511], [-0.49778, 44.48756], [-0.49605, 44.48788], [-0.49473, 44.48712], [-0.49327, 44.48749], [-0.49182, 44.48606], [-0.49103, 44.48586], [-0.49066, 44.4862], [-0.48992, 44.48627], [-0.48926, 44.48555], [-0.48829, 44.48589], [-0.48713, 44.48555], [-0.48689, 44.4852], [-0.48669, 44.48561], [-0.48565, 44.48589], [-0.48534, 44.48547], [-0.4834, 44.48487], [-0.48312, 44.48684], [-0.48426, 44.48869], [-0.4841, 44.48946], [-0.4835, 44.48994], [-0.48359, 44.49287], [-0.48058, 44.4992], [-0.47356, 44.50977], [-0.4736, 44.51104], [-0.47171, 44.51625], [-0.47609, 44.51521], [-0.48027, 44.51478], [-0.48292, 44.51616], [-0.48305, 44.52297], [-0.4812, 44.5226], [-0.47991, 44.5228], [-0.47847, 44.52212], [-0.47713, 44.52193], [-0.4743, 44.52224], [-0.47368, 44.52283], [-0.47283, 44.52271], [-0.47283, 44.52315], [-0.47144, 44.52337], [-0.47097, 44.52375], [-0.46818, 44.52351], [-0.46669, 44.52402], [-0.4651, 44.52396], [-0.46386, 44.52325], [-0.46265, 44.52376], [-0.46085, 44.52399], [-0.46056, 44.52363], [-0.45811, 44.52364], [-0.45667, 44.52331], [-0.45569, 44.52353], [-0.45532, 44.52327], [-0.45319, 44.5237], [-0.45148, 44.52354], [-0.45117, 44.52378], [-0.45058, 44.52164], [-0.44706, 44.52041], [-0.43251, 44.51849], [-0.41934, 44.51621], [-0.42417, 44.51085]]]}}, {"type": "Feature", "properties": {"code_insee": "33536", "commune": "Le Tuzan", "obligations": 174, "constructions": 304, "surface_nette_ha": 66.8, "dont_chez_voisins_non_batis_ha": 28.7, "en_lisiere": 32, "priorite_forte_ou_plus": 23}, "geometry": {"type": "Polygon", "coordinates": [[[-0.62772, 44.44289], [-0.63947, 44.44888], [-0.63677, 44.44972], [-0.62561, 44.45183], [-0.61796, 44.45493], [-0.61567, 44.45792], [-0.61663, 44.46057], [-0.62008, 44.46291], [-0.62136, 44.46301], [-0.61984, 44.46571], [-0.6205, 44.46858], [-0.61234, 44.47224], [-0.61159, 44.47171], [-0.6066, 44.47271], [-0.59228, 44.47082], [-0.58526, 44.469], [-0.58503, 44.46986], [-0.58349, 44.4701], [-0.57663, 44.4692], [-0.57677, 44.46687], [-0.57893, 44.46608], [-0.58471, 44.46536], [-0.58717, 44.4627], [-0.58231, 44.46034], [-0.58226, 44.45897], [-0.57489, 44.45885], [-0.56637, 44.45104], [-0.56403, 44.45083], [-0.56401, 44.45043], [-0.56272, 44.45036], [-0.56314, 44.44601], [-0.56289, 44.44481], [-0.56376, 44.44276], [-0.5649, 44.44267], [-0.56533, 44.44212], [-0.56618, 44.44196], [-0.57087, 44.43918], [-0.57214, 44.43951], [-0.57603, 44.43666], [-0.5817, 44.43395], [-0.58324, 44.43256], [-0.58379, 44.43241], [-0.59064, 44.4321], [-0.59354, 44.43238], [-0.59496, 44.43225], [-0.59697, 44.43311], [-0.60082, 44.4323], [-0.61133, 44.4318], [-0.61047, 44.42882], [-0.62732, 44.42927], [-0.62772, 44.44289]]]}}, {"type": "Feature", "properties": {"code_insee": "33310", "commune": "Origne", "obligations": 141, "constructions": 245, "surface_nette_ha": 90.0, "dont_chez_voisins_non_batis_ha": 47.5, "en_lisiere": 61, "priorite_forte_ou_plus": 67}, "geometry": {"type": "Polygon", "coordinates": [[[-0.54537, 44.48901], [-0.5462, 44.4964], [-0.54206, 44.50249], [-0.54117, 44.50458], [-0.53949, 44.50707], [-0.5367, 44.50972], [-0.53601, 44.51139], [-0.53462, 44.51321], [-0.53088, 44.51697], [-0.52782, 44.52409], [-0.52606, 44.5309], [-0.52632, 44.53212], [-0.51922, 44.52954], [-0.48837, 44.52406], [-0.48653, 44.52304], [-0.48436, 44.52319], [-0.48305, 44.52297], [-0.48306, 44.51633], [-0.48027, 44.51478], [-0.47609, 44.51521], [-0.47171, 44.51625], [-0.4736, 44.51104], [-0.47356, 44.50977], [-0.48058, 44.4992], [-0.48359, 44.49287], [-0.4835, 44.48994], [-0.4841, 44.48946], [-0.48426, 44.48869], [-0.48312, 44.48684], [-0.4834, 44.48487], [-0.48534, 44.48547], [-0.48565, 44.48589], [-0.48669, 44.48561], [-0.48689, 44.4852], [-0.48713, 44.48555], [-0.48829, 44.48589], [-0.48926, 44.48555], [-0.48992, 44.48627], [-0.49066, 44.4862], [-0.49103, 44.48586], [-0.49182, 44.48606], [-0.49327, 44.48749], [-0.49473, 44.48712], [-0.49605, 44.48788], [-0.49778, 44.48756], [-0.50024, 44.48511], [-0.50095, 44.48292], [-0.49829, 44.48125], [-0.49933, 44.4779], [-0.5012, 44.47648], [-0.5011, 44.47289], [-0.50656, 44.47416], [-0.50495, 44.47825], [-0.50917, 44.48026], [-0.51886, 44.48259], [-0.51962, 44.48261], [-0.52202, 44.48179], [-0.5264, 44.48294], [-0.52563, 44.48386], [-0.52352, 44.4849], [-0.52413, 44.4875], [-0.52429, 44.48685], [-0.52477, 44.48681], [-0.5248, 44.48624], [-0.5263, 44.48662], [-0.528, 44.48605], [-0.5287, 44.48546], [-0.52972, 44.48543], [-0.53049, 44.4863], [-0.54112, 44.48739], [-0.54477, 44.48748], [-0.54537, 44.48901]]]}}, {"type": "Feature", "properties": {"code_insee": "33225", "commune": "Landiras", "obligations": 1476, "constructions": 2308, "surface_nette_ha": 425.2, "dont_chez_voisins_non_batis_ha": 240.5, "en_lisiere": 542, "priorite_forte_ou_plus": 185}, "geometry": {"type": "Polygon", "coordinates": [[[-0.36723, 44.57281], [-0.36929, 44.56455], [-0.36973, 44.5644], [-0.36864, 44.56267], [-0.36913, 44.56032], [-0.37102, 44.55786], [-0.37157, 44.55631], [-0.37226, 44.55647], [-0.37277, 44.55594], [-0.3747, 44.55771], [-0.37543, 44.55788], [-0.37664, 44.55758], [-0.37746, 44.55796], [-0.37897, 44.55692], [-0.38235, 44.55563], [-0.38259, 44.55595], [-0.38335, 44.55556], [-0.38438, 44.55593], [-0.38472, 44.55665], [-0.38519, 44.55618], [-0.38735, 44.5566], [-0.39171, 44.55652], [-0.39277, 44.55631], [-0.39276, 44.55572], [-0.39405, 44.55637], [-0.39509, 44.55592], [-0.39576, 44.55519], [-0.39785, 44.5556], [-0.39937, 44.55514], [-0.40056, 44.55527], [-0.40103, 44.55496], [-0.40181, 44.55556], [-0.40375, 44.55484], [-0.40445, 44.55526], [-0.40564, 44.55401], [-0.40654, 44.55451], [-0.40753, 44.55445], [-0.40822, 44.5534], [-0.41184, 44.55263], [-0.41251, 44.55199], [-0.41333, 44.55204], [-0.41377, 44.55162], [-0.41347, 44.55143], [-0.41361, 44.55078], [-0.415, 44.55038], [-0.41786, 44.54868], [-0.41823, 44.54872], [-0.41967, 44.54733], [-0.4202, 44.54726], [-0.42047, 44.54645], [-0.42179, 44.54634], [-0.42123, 44.54562], [-0.42131, 44.54498], [-0.42263, 44.54284], [-0.42464, 44.54254], [-0.42501, 44.54134], [-0.42619, 44.54088], [-0.42617, 44.54052], [-0.42552, 44.54029], [-0.42603, 44.54001], [-0.426, 44.53966], [-0.42828, 44.53932], [-0.42904, 44.53854], [-0.42951, 44.53854], [-0.42925, 44.53829], [-0.4285, 44.53831], [-0.42866, 44.53763], [-0.42915, 44.53758], [-0.42916, 44.53715], [-0.42987, 44.53718], [-0.42971, 44.53642], [-0.43029, 44.5359], [-0.43065, 44.536], [-0.43067, 44.53529], [-0.43143, 44.53515], [-0.43203, 44.53381], [-0.43285, 44.5332], [-0.43281, 44.53264], [-0.43449, 44.53245], [-0.43498, 44.53171], [-0.43651, 44.53133], [-0.43687, 44.53082], [-0.43738, 44.53086], [-0.43852, 44.53009], [-0.43885, 44.5302], [-0.44017, 44.52918], [-0.44172, 44.52914], [-0.44251, 44.52869], [-0.44239, 44.52844], [-0.44401, 44.52795], [-0.44459, 44.52722], [-0.44589, 44.5267], [-0.44617, 44.52616], [-0.44735, 44.52561], [-0.4475, 44.52516], [-0.44816, 44.52533], [-0.4503, 44.52367], [-0.45086, 44.52352], [-0.45117, 44.52378], [-0.45185, 44.5235], [-0.45319, 44.5237], [-0.45532, 44.52327], [-0.45629, 44.52354], [-0.45667, 44.52331], [-0.45811, 44.52364], [-0.46056, 44.52363], [-0.46085, 44.52399], [-0.46265, 44.52376], [-0.46386, 44.52325], [-0.4651, 44.52396], [-0.46669, 44.52402], [-0.46818, 44.52351], [-0.47097, 44.52375], [-0.47144, 44.52337], [-0.47283, 44.52315], [-0.47283, 44.52271], [-0.47368, 44.52283], [-0.4743, 44.52224], [-0.47713, 44.52193], [-0.47847, 44.52212], [-0.47991, 44.5228], [-0.4812, 44.5226], [-0.48436, 44.52319], [-0.48653, 44.52304], [-0.48837, 44.52406], [-0.49082, 44.52431], [-0.50083, 44.52629], [-0.49224, 44.54388], [-0.48081, 44.55363], [-0.48066, 44.55836], [-0.48787, 44.57501], [-0.48394, 44.58621], [-0.48337, 44.58694], [-0.48309, 44.58861], [-0.48052, 44.59223], [-0.46653, 44.60595], [-0.48881, 44.61241], [-0.48872, 44.61728], [-0.4536, 44.61058], [-0.45027, 44.60665], [-0.44619, 44.60445], [-0.44041, 44.60463], [-0.43193, 44.6079], [-0.42842, 44.60333], [-0.42418, 44.60025], [-0.41456, 44.59566], [-0.40307, 44.58565], [-0.39957, 44.583], [-0.3911, 44.58127], [-0.38647, 44.57918], [-0.38245, 44.57815], [-0.37845, 44.57752], [-0.37087, 44.57733], [-0.36575, 44.57646], [-0.36723, 44.57281]]]}}, {"type": "Feature", "properties": {"code_insee": "33042", "commune": "Belin-Béliet", "obligations": 2861, "constructions": 4727, "surface_nette_ha": 939.5, "dont_chez_voisins_non_batis_ha": 374.9, "en_lisiere": 487, "priorite_forte_ou_plus": 537}, "geometry": {"type": "Polygon", "coordinates": [[[-0.90854, 44.45204], [-0.86255, 44.46398], [-0.85144, 44.47175], [-0.85229, 44.47153], [-0.84342, 44.47781], [-0.84112, 44.48006], [-0.83914, 44.48128], [-0.83751, 44.48309], [-0.8317, 44.48759], [-0.82362, 44.4953], [-0.82346, 44.49612], [-0.82211, 44.49698], [-0.82212, 44.4982], [-0.81893, 44.50199], [-0.8204, 44.50694], [-0.81978, 44.50862], [-0.82037, 44.50926], [-0.82111, 44.50919], [-0.82305, 44.50969], [-0.82386, 44.50919], [-0.82329, 44.50785], [-0.82379, 44.50719], [-0.82508, 44.50713], [-0.82609, 44.50786], [-0.82724, 44.50803], [-0.82841, 44.50881], [-0.82842, 44.50971], [-0.8289, 44.51039], [-0.82882, 44.51094], [-0.82792, 44.51126], [-0.82806, 44.51171], [-0.82877, 44.51219], [-0.83025, 44.51211], [-0.83101, 44.51395], [-0.83258, 44.514], [-0.83332, 44.51477], [-0.83481, 44.5153], [-0.83532, 44.5152], [-0.83603, 44.51437], [-0.83721, 44.51427], [-0.83788, 44.51449], [-0.83888, 44.51557], [-0.8417, 44.51576], [-0.8431, 44.51463], [-0.84365, 44.5146], [-0.8442, 44.51569], [-0.84261, 44.51727], [-0.84235, 44.5178], [-0.84265, 44.51821], [-0.83802, 44.51771], [-0.82703, 44.52522], [-0.817, 44.53738], [-0.77256, 44.57314], [-0.77023, 44.57346], [-0.76787, 44.57336], [-0.7672, 44.57283], [-0.73677, 44.56736], [-0.72423, 44.56705], [-0.714, 44.56619], [-0.71903, 44.55904], [-0.72027, 44.55823], [-0.72167, 44.5581], [-0.72315, 44.55518], [-0.72292, 44.55446], [-0.7219, 44.55405], [-0.72123, 44.553], [-0.72197, 44.55175], [-0.72226, 44.55017], [-0.72221, 44.54735], [-0.72158, 44.54647], [-0.72163, 44.54397], [-0.72208, 44.54301], [-0.72158, 44.54253], [-0.72029, 44.54238], [-0.7191, 44.54134], [-0.7193, 44.54048], [-0.72004, 44.53996], [-0.72005, 44.53861], [-0.72068, 44.53774], [-0.72064, 44.53711], [-0.71929, 44.5366], [-0.71905, 44.53561], [-0.71727, 44.51932], [-0.71569, 44.51672], [-0.71512, 44.51442], [-0.71681, 44.51481], [-0.71837, 44.51357], [-0.72254, 44.51335], [-0.7232, 44.51306], [-0.72852, 44.51437], [-0.7349, 44.50538], [-0.7395, 44.50282], [-0.72911, 44.49672], [-0.72328, 44.49228], [-0.71729, 44.48901], [-0.71544, 44.48832], [-0.71587, 44.48518], [-0.71075, 44.48347], [-0.70933, 44.48517], [-0.70691, 44.48596], [-0.70591, 44.48603], [-0.70266, 44.4853], [-0.70103, 44.48643], [-0.69898, 44.48576], [-0.69862, 44.485], [-0.69891, 44.48454], [-0.69361, 44.48306], [-0.69577, 44.47993], [-0.6948, 44.47421], [-0.69784, 44.46854], [-0.69679, 44.46668], [-0.70165, 44.46331], [-0.70221, 44.46073], [-0.70296, 44.45997], [-0.7072, 44.45813], [-0.7012, 44.45498], [-0.6825, 44.45085], [-0.67864, 44.45023], [-0.67966, 44.4482], [-0.67979, 44.44697], [-0.68162, 44.44423], [-0.684, 44.44343], [-0.68803, 44.44273], [-0.69039, 44.44104], [-0.69272, 44.4406], [-0.69896, 44.443], [-0.72926, 44.44822], [-0.73021, 44.44628], [-0.7645, 44.44074], [-0.76566, 44.44034], [-0.76901, 44.43999], [-0.77148, 44.44029], [-0.77498, 44.44017], [-0.77755, 44.44041], [-0.77883, 44.43995], [-0.77991, 44.4405], [-0.781, 44.44051], [-0.77982, 44.4395], [-0.77946, 44.4387], [-0.7774, 44.43791], [-0.77716, 44.43688], [-0.77794, 44.43579], [-0.78014, 44.43559], [-0.78083, 44.43493], [-0.77869, 44.43373], [-0.7784, 44.43293], [-0.77929, 44.432], [-0.77922, 44.42939], [-0.78047, 44.42815], [-0.78179, 44.42824], [-0.78457, 44.4296], [-0.78748, 44.42998], [-0.78882, 44.42931], [-0.78996, 44.42915], [-0.79116, 44.42936], [-0.79307, 44.42874], [-0.7936, 44.42909], [-0.79352, 44.42864], [-0.79444, 44.4284], [-0.79375, 44.42824], [-0.79404, 44.42787], [-0.79577, 44.42757], [-0.79643, 44.42718], [-0.79806, 44.42771], [-0.79889, 44.42698], [-0.8001, 44.4269], [-0.80052, 44.42642], [-0.80143, 44.42619], [-0.80274, 44.425], [-0.80412, 44.42478], [-0.80451, 44.42445], [-0.80436, 44.42407], [-0.80507, 44.4237], [-0.80537, 44.42406], [-0.806, 44.42374], [-0.8071, 44.42375], [-0.8071, 44.42331], [-0.80767, 44.42318], [-0.8083, 44.42227], [-0.80933, 44.42185], [-0.81, 44.42034], [-0.81557, 44.4211], [-0.81873, 44.42027], [-0.82837, 44.42031], [-0.83418, 44.41903], [-0.8429, 44.41837], [-0.84489, 44.41918], [-0.85313, 44.42144], [-0.9083, 44.43606], [-0.91197, 44.43681], [-0.91907, 44.44349], [-0.90854, 44.45204]]]}}, {"type": "Feature", "properties": {"code_insee": "40295", "commune": "Saugnac-et-Muret", "obligations": 988, "constructions": 1504, "surface_nette_ha": 397.7, "dont_chez_voisins_non_batis_ha": 188.7, "en_lisiere": 231, "priorite_forte_ou_plus": 284}, "geometry": {"type": "Polygon", "coordinates": [[[-0.91913, 44.4435], [-0.91197, 44.43681], [-0.9083, 44.43606], [-0.85313, 44.42144], [-0.84489, 44.41918], [-0.8429, 44.41837], [-0.83418, 44.41903], [-0.82837, 44.42031], [-0.81873, 44.42027], [-0.81557, 44.4211], [-0.81, 44.42034], [-0.80933, 44.42185], [-0.8083, 44.42227], [-0.80767, 44.42318], [-0.8071, 44.42331], [-0.8071, 44.42375], [-0.806, 44.42374], [-0.80537, 44.42406], [-0.80507, 44.4237], [-0.80436, 44.42407], [-0.80451, 44.42445], [-0.80412, 44.42478], [-0.80274, 44.425], [-0.80143, 44.42619], [-0.80052, 44.42642], [-0.8001, 44.4269], [-0.79889, 44.42698], [-0.79806, 44.42771], [-0.79643, 44.42718], [-0.79374, 44.42802], [-0.79444, 44.4284], [-0.79352, 44.42864], [-0.7936, 44.42909], [-0.79307, 44.42874], [-0.79116, 44.42936], [-0.78996, 44.42915], [-0.78882, 44.42931], [-0.78748, 44.42998], [-0.78457, 44.4296], [-0.78179, 44.42824], [-0.78047, 44.42815], [-0.78016, 44.42724], [-0.77778, 44.42574], [-0.77747, 44.42518], [-0.77802, 44.42455], [-0.78013, 44.42366], [-0.7825, 44.42377], [-0.78344, 44.42341], [-0.78331, 44.42264], [-0.78079, 44.42281], [-0.77982, 44.42206], [-0.78, 44.42119], [-0.78211, 44.42108], [-0.78316, 44.42064], [-0.78216, 44.41867], [-0.78219, 44.41802], [-0.78275, 44.41765], [-0.78088, 44.4175], [-0.77745, 44.41461], [-0.77513, 44.41339], [-0.7728, 44.41288], [-0.77118, 44.41179], [-0.77109, 44.41036], [-0.76698, 44.40749], [-0.76564, 44.40531], [-0.76373, 44.40397], [-0.76348, 44.40332], [-0.76071, 44.40182], [-0.76075, 44.40033], [-0.75981, 44.3981], [-0.75587, 44.39507], [-0.75484, 44.39303], [-0.7502, 44.38974], [-0.75561, 44.38531], [-0.75581, 44.38703], [-0.75795, 44.38678], [-0.76059, 44.38772], [-0.76511, 44.38564], [-0.76624, 44.38683], [-0.77002, 44.38676], [-0.77032, 44.38698], [-0.77088, 44.38569], [-0.77033, 44.38535], [-0.77012, 44.38302], [-0.76889, 44.38087], [-0.76941, 44.37982], [-0.77274, 44.3779], [-0.77335, 44.37634], [-0.79895, 44.35887], [-0.80122, 44.35751], [-0.80711, 44.35572], [-0.82648, 44.35021], [-0.83409, 44.34835], [-0.83573, 44.34734], [-0.83847, 44.34438], [-0.84696, 44.33693], [-0.87195, 44.33519], [-0.90218, 44.34551], [-0.94412, 44.42376], [-0.94866, 44.43543], [-0.91913, 44.4435]]]}}, {"type": "Feature", "properties": {"code_insee": "40200", "commune": "Moustey", "obligations": 317, "constructions": 595, "surface_nette_ha": 215.1, "dont_chez_voisins_non_batis_ha": 116.7, "en_lisiere": 151, "priorite_forte_ou_plus": 192}, "geometry": {"type": "Polygon", "coordinates": [[[-0.72698, 44.34897], [-0.73408, 44.34777], [-0.73835, 44.34807], [-0.73813, 44.34839], [-0.74453, 44.34968], [-0.74662, 44.35082], [-0.75055, 44.3521], [-0.75161, 44.35099], [-0.75319, 44.35106], [-0.75353, 44.35037], [-0.75583, 44.34972], [-0.75675, 44.34825], [-0.75599, 44.34724], [-0.75714, 44.34623], [-0.75766, 44.34506], [-0.75745, 44.34437], [-0.75638, 44.34464], [-0.75503, 44.34411], [-0.75412, 44.34447], [-0.75292, 44.34429], [-0.75269, 44.34346], [-0.75334, 44.34295], [-0.75353, 44.3418], [-0.75506, 44.34101], [-0.75469, 44.34035], [-0.75549, 44.33967], [-0.75556, 44.33841], [-0.75526, 44.33792], [-0.75422, 44.33743], [-0.75462, 44.3355], [-0.75351, 44.33549], [-0.75269, 44.33515], [-0.75202, 44.33421], [-0.7522, 44.3338], [-0.75345, 44.33431], [-0.75403, 44.33406], [-0.75533, 44.33414], [-0.75684, 44.33317], [-0.75767, 44.33374], [-0.75961, 44.33342], [-0.76086, 44.33384], [-0.76222, 44.33535], [-0.76411, 44.33537], [-0.76599, 44.3362], [-0.7677, 44.33589], [-0.76836, 44.33637], [-0.76875, 44.33594], [-0.77137, 44.33567], [-0.77361, 44.33469], [-0.77484, 44.33533], [-0.77691, 44.33571], [-0.77803, 44.33567], [-0.77881, 44.33501], [-0.77969, 44.33477], [-0.78103, 44.33501], [-0.78192, 44.33576], [-0.78352, 44.33598], [-0.78433, 44.33646], [-0.78529, 44.33632], [-0.78992, 44.33674], [-0.79638, 44.33867], [-0.80586, 44.34054], [-0.84696, 44.33693], [-0.83847, 44.34438], [-0.83573, 44.34734], [-0.83409, 44.34835], [-0.82648, 44.35021], [-0.80711, 44.35572], [-0.80122, 44.35751], [-0.79895, 44.35887], [-0.77335, 44.37634], [-0.77274, 44.3779], [-0.76941, 44.37982], [-0.76889, 44.38087], [-0.77012, 44.38302], [-0.77033, 44.38535], [-0.77088, 44.38569], [-0.77032, 44.38698], [-0.77002, 44.38676], [-0.76624, 44.38683], [-0.76511, 44.38564], [-0.76059, 44.38772], [-0.75795, 44.38678], [-0.75581, 44.38703], [-0.75561, 44.38531], [-0.7502, 44.38974], [-0.75484, 44.39303], [-0.75587, 44.39507], [-0.75981, 44.3981], [-0.76075, 44.40033], [-0.76071, 44.40182], [-0.76348, 44.40332], [-0.76373, 44.40397], [-0.76564, 44.40531], [-0.76698, 44.40749], [-0.77109, 44.41036], [-0.77118, 44.41179], [-0.7728, 44.41288], [-0.77513, 44.41339], [-0.77745, 44.41461], [-0.78088, 44.4175], [-0.78275, 44.41765], [-0.78219, 44.41802], [-0.78216, 44.41867], [-0.78316, 44.42064], [-0.78211, 44.42108], [-0.78, 44.42119], [-0.77982, 44.42206], [-0.78079, 44.42281], [-0.78331, 44.42264], [-0.78344, 44.42341], [-0.7825, 44.42377], [-0.78013, 44.42366], [-0.77802, 44.42455], [-0.77747, 44.42518], [-0.77778, 44.42574], [-0.78037, 44.42749], [-0.78047, 44.42815], [-0.77911, 44.42971], [-0.77939, 44.43155], [-0.7784, 44.43293], [-0.77843, 44.43347], [-0.78083, 44.43493], [-0.78014, 44.43559], [-0.77794, 44.43579], [-0.77716, 44.43688], [-0.7772, 44.43769], [-0.77946, 44.4387], [-0.77982, 44.4395], [-0.781, 44.44051], [-0.77991, 44.4405], [-0.77883, 44.43995], [-0.77755, 44.44041], [-0.77498, 44.44017], [-0.77148, 44.44029], [-0.76901, 44.43999], [-0.76566, 44.44034], [-0.7645, 44.44074], [-0.73021, 44.44628], [-0.72926, 44.44822], [-0.69867, 44.44283], [-0.70092, 44.42593], [-0.70348, 44.41927], [-0.70749, 44.41681], [-0.70914, 44.41298], [-0.71054, 44.41359], [-0.71194, 44.41363], [-0.71333, 44.4144], [-0.71474, 44.41431], [-0.7152, 44.41378], [-0.71387, 44.41143], [-0.71062, 44.40322], [-0.71364, 44.38146], [-0.71328, 44.38061], [-0.70976, 44.37854], [-0.70842, 44.37582], [-0.70681, 44.37391], [-0.71217, 44.35558], [-0.70981, 44.34452], [-0.72698, 44.34897]]]}}, {"type": "Feature", "properties": {"code_insee": "33251", "commune": "Louchats", "obligations": 456, "constructions": 871, "surface_nette_ha": 236.7, "dont_chez_voisins_non_batis_ha": 126.2, "en_lisiere": 173, "priorite_forte_ou_plus": 210}, "geometry": {"type": "Polygon", "coordinates": [[[-0.57663, 44.4692], [-0.57715, 44.46933], [-0.58349, 44.4701], [-0.58503, 44.46986], [-0.58526, 44.469], [-0.59152, 44.47062], [-0.59051, 44.47127], [-0.5885, 44.47515], [-0.58665, 44.47665], [-0.58675, 44.48562], [-0.58573, 44.4885], [-0.58403, 44.49166], [-0.58371, 44.49401], [-0.60262, 44.49853], [-0.60251, 44.49968], [-0.60463, 44.50693], [-0.61211, 44.51782], [-0.61078, 44.51864], [-0.61013, 44.52053], [-0.6092, 44.52079], [-0.60852, 44.52211], [-0.60603, 44.52275], [-0.60644, 44.52411], [-0.60595, 44.52478], [-0.60522, 44.52841], [-0.60551, 44.52919], [-0.60538, 44.53177], [-0.60343, 44.53381], [-0.60431, 44.53751], [-0.60386, 44.53988], [-0.60458, 44.54158], [-0.60415, 44.54288], [-0.6044, 44.54451], [-0.60376, 44.54484], [-0.6034, 44.5458], [-0.60403, 44.54681], [-0.60357, 44.54772], [-0.60228, 44.54827], [-0.60149, 44.54906], [-0.60233, 44.55025], [-0.60211, 44.55127], [-0.60158, 44.55169], [-0.60167, 44.55286], [-0.60022, 44.5529], [-0.59967, 44.55236], [-0.59925, 44.5526], [-0.59896, 44.55181], [-0.59696, 44.55099], [-0.59416, 44.55101], [-0.59358, 44.55066], [-0.59373, 44.54997], [-0.59337, 44.54989], [-0.59225, 44.5505], [-0.5914, 44.54978], [-0.5907, 44.55], [-0.5902, 44.54944], [-0.58941, 44.54925], [-0.58789, 44.54936], [-0.58628, 44.54855], [-0.58414, 44.54867], [-0.58177, 44.54839], [-0.56535, 44.54588], [-0.53733, 44.53568], [-0.52632, 44.53212], [-0.52606, 44.5309], [-0.52782, 44.52409], [-0.53088, 44.51697], [-0.53462, 44.51321], [-0.53601, 44.51139], [-0.5367, 44.50972], [-0.53949, 44.50707], [-0.54117, 44.50458], [-0.54206, 44.50249], [-0.5462, 44.4964], [-0.54537, 44.48901], [-0.54451, 44.48686], [-0.5508, 44.48527], [-0.55408, 44.47706], [-0.55852, 44.47239], [-0.55788, 44.47006], [-0.55896, 44.46924], [-0.56535, 44.46795], [-0.57015, 44.46813], [-0.57386, 44.46879], [-0.57671, 44.46869], [-0.57663, 44.4692]]]}}, {"type": "Feature", "properties": {"code_insee": "33436", "commune": "Saint-Magne", "obligations": 721, "constructions": 1157, "surface_nette_ha": 311.1, "dont_chez_voisins_non_batis_ha": 150.8, "en_lisiere": 179, "priorite_forte_ou_plus": 209}, "geometry": {"type": "Polygon", "coordinates": [[[-0.61904, 44.61126], [-0.6153, 44.60791], [-0.60901, 44.60364], [-0.61271, 44.59563], [-0.61593, 44.58199], [-0.61262, 44.57447], [-0.60866, 44.56394], [-0.60804, 44.56333], [-0.60822, 44.56286], [-0.60742, 44.56257], [-0.60753, 44.56184], [-0.60723, 44.5619], [-0.60664, 44.56133], [-0.60637, 44.5607], [-0.60681, 44.56038], [-0.60612, 44.5597], [-0.60439, 44.55899], [-0.60383, 44.55834], [-0.60441, 44.5572], [-0.60398, 44.55698], [-0.60466, 44.55635], [-0.60415, 44.55625], [-0.60355, 44.55505], [-0.60213, 44.555], [-0.60162, 44.55307], [-0.60186, 44.55258], [-0.60158, 44.55169], [-0.60211, 44.55127], [-0.60233, 44.55025], [-0.60149, 44.54906], [-0.60228, 44.54827], [-0.60357, 44.54772], [-0.60403, 44.54681], [-0.6034, 44.5458], [-0.60376, 44.54484], [-0.6044, 44.54451], [-0.60415, 44.54288], [-0.60458, 44.54158], [-0.60386, 44.53988], [-0.60431, 44.53751], [-0.60343, 44.53381], [-0.60538, 44.53177], [-0.60551, 44.52919], [-0.60522, 44.52841], [-0.60595, 44.52478], [-0.60644, 44.52411], [-0.60603, 44.52275], [-0.60852, 44.52211], [-0.6092, 44.52079], [-0.61013, 44.52053], [-0.61078, 44.51864], [-0.61211, 44.51782], [-0.61266, 44.51579], [-0.61551, 44.51442], [-0.61919, 44.51315], [-0.62187, 44.51234], [-0.63125, 44.5136], [-0.63695, 44.51126], [-0.65146, 44.50875], [-0.65273, 44.50889], [-0.65368, 44.50793], [-0.65877, 44.50672], [-0.66209, 44.50871], [-0.66786, 44.50964], [-0.671, 44.50941], [-0.68043, 44.5096], [-0.68438, 44.51023], [-0.68588, 44.50987], [-0.68801, 44.51072], [-0.69171, 44.51084], [-0.69712, 44.51196], [-0.6999, 44.51191], [-0.70018, 44.51164], [-0.70405, 44.512], [-0.70606, 44.51275], [-0.70759, 44.51298], [-0.70985, 44.51148], [-0.71161, 44.51159], [-0.71317, 44.51335], [-0.71512, 44.51442], [-0.71569, 44.51672], [-0.71727, 44.51932], [-0.71905, 44.53561], [-0.71929, 44.5366], [-0.72064, 44.53711], [-0.72068, 44.53774], [-0.72005, 44.53861], [-0.72004, 44.53996], [-0.7193, 44.54048], [-0.7191, 44.54134], [-0.72029, 44.54238], [-0.72158, 44.54253], [-0.72208, 44.54301], [-0.72163, 44.54397], [-0.72158, 44.54647], [-0.72221, 44.54735], [-0.72226, 44.55017], [-0.72197, 44.55175], [-0.72123, 44.553], [-0.7219, 44.55405], [-0.72292, 44.55446], [-0.72315, 44.55518], [-0.72179, 44.55792], [-0.72027, 44.55823], [-0.71903, 44.55904], [-0.71384, 44.56641], [-0.69604, 44.57756], [-0.68522, 44.58672], [-0.66193, 44.609], [-0.61904, 44.61126]]]}}, {"type": "Feature", "properties": {"code_insee": "33202", "commune": "Hostens", "obligations": 925, "constructions": 1479, "surface_nette_ha": 283.9, "dont_chez_voisins_non_batis_ha": 133.7, "en_lisiere": 197, "priorite_forte_ou_plus": 181}, "geometry": {"type": "Polygon", "coordinates": [[[-0.7012, 44.45498], [-0.7072, 44.45813], [-0.70296, 44.45997], [-0.70221, 44.46073], [-0.70165, 44.46331], [-0.69679, 44.46668], [-0.69784, 44.46854], [-0.6948, 44.47421], [-0.69577, 44.47993], [-0.69361, 44.48306], [-0.69891, 44.48454], [-0.69862, 44.485], [-0.69898, 44.48576], [-0.70103, 44.48643], [-0.70266, 44.4853], [-0.70591, 44.48603], [-0.70691, 44.48596], [-0.70933, 44.48517], [-0.71075, 44.48347], [-0.71587, 44.48518], [-0.71544, 44.48832], [-0.71729, 44.48901], [-0.72328, 44.49228], [-0.72911, 44.49672], [-0.7395, 44.50282], [-0.7349, 44.50538], [-0.72852, 44.51437], [-0.7232, 44.51306], [-0.72254, 44.51335], [-0.71837, 44.51357], [-0.7171, 44.51465], [-0.71652, 44.51479], [-0.71407, 44.51398], [-0.71161, 44.51159], [-0.71069, 44.51141], [-0.70968, 44.51155], [-0.70759, 44.51298], [-0.70606, 44.51275], [-0.70405, 44.512], [-0.70018, 44.51164], [-0.6999, 44.51191], [-0.69712, 44.51196], [-0.69171, 44.51084], [-0.68801, 44.51072], [-0.68588, 44.50987], [-0.68438, 44.51023], [-0.68043, 44.5096], [-0.671, 44.50941], [-0.66742, 44.5096], [-0.66209, 44.50871], [-0.65877, 44.50672], [-0.65368, 44.50793], [-0.65273, 44.50889], [-0.65146, 44.50875], [-0.63695, 44.51126], [-0.63125, 44.5136], [-0.62187, 44.51234], [-0.61608, 44.5142], [-0.61266, 44.51579], [-0.61211, 44.51782], [-0.60463, 44.50693], [-0.60251, 44.49968], [-0.60262, 44.49853], [-0.58371, 44.49401], [-0.58403, 44.49166], [-0.58573, 44.4885], [-0.58675, 44.48562], [-0.58665, 44.47665], [-0.5885, 44.47515], [-0.59051, 44.47127], [-0.59152, 44.47062], [-0.6066, 44.47271], [-0.61159, 44.47171], [-0.61234, 44.47224], [-0.6205, 44.46858], [-0.61984, 44.46571], [-0.62136, 44.46301], [-0.62008, 44.46291], [-0.61663, 44.46057], [-0.61567, 44.45792], [-0.61843, 44.45455], [-0.62561, 44.45183], [-0.63677, 44.44972], [-0.63947, 44.44888], [-0.6441, 44.45045], [-0.6762, 44.45732], [-0.67653, 44.45665], [-0.67807, 44.45583], [-0.67787, 44.45491], [-0.6793, 44.45449], [-0.6825, 44.45085], [-0.7012, 44.45498]]]}}, {"type": "Feature", "properties": {"code_insee": "33076", "commune": "Budos", "obligations": 565, "constructions": 922, "surface_nette_ha": 212.5, "dont_chez_voisins_non_batis_ha": 133.9, "en_lisiere": 285, "priorite_forte_ou_plus": 136}, "geometry": {"type": "Polygon", "coordinates": [[[-0.3645, 44.54036], [-0.3675, 44.53781], [-0.36855, 44.53497], [-0.36765, 44.53047], [-0.36958, 44.52934], [-0.37009, 44.52867], [-0.37214, 44.52782], [-0.37323, 44.52538], [-0.37414, 44.5248], [-0.37539, 44.52319], [-0.3751, 44.52151], [-0.37637, 44.52045], [-0.37611, 44.51949], [-0.37684, 44.51868], [-0.37686, 44.51811], [-0.37847, 44.51725], [-0.37839, 44.51649], [-0.38025, 44.51684], [-0.3831, 44.51684], [-0.38487, 44.51738], [-0.38566, 44.51693], [-0.38797, 44.51708], [-0.39016, 44.51655], [-0.39111, 44.51663], [-0.39474, 44.51605], [-0.39923, 44.5162], [-0.40207, 44.51672], [-0.40538, 44.51657], [-0.40888, 44.51711], [-0.41934, 44.51621], [-0.43251, 44.51849], [-0.44706, 44.52041], [-0.45068, 44.52174], [-0.45086, 44.52352], [-0.44905, 44.5244], [-0.44816, 44.52533], [-0.4475, 44.52516], [-0.44735, 44.52561], [-0.44617, 44.52616], [-0.44561, 44.52688], [-0.44459, 44.52722], [-0.44401, 44.52795], [-0.44239, 44.52844], [-0.44251, 44.52869], [-0.4416, 44.52919], [-0.44017, 44.52918], [-0.43885, 44.5302], [-0.43852, 44.53009], [-0.43738, 44.53086], [-0.43687, 44.53082], [-0.43651, 44.53133], [-0.43498, 44.53171], [-0.43449, 44.53245], [-0.43281, 44.53264], [-0.43285, 44.5332], [-0.43203, 44.53381], [-0.43143, 44.53515], [-0.43067, 44.53529], [-0.43065, 44.536], [-0.43029, 44.5359], [-0.42971, 44.53642], [-0.42987, 44.53718], [-0.42916, 44.53715], [-0.42915, 44.53758], [-0.42866, 44.53763], [-0.4285, 44.53831], [-0.42925, 44.53829], [-0.42951, 44.53854], [-0.42904, 44.53854], [-0.42828, 44.53932], [-0.426, 44.53966], [-0.42603, 44.54001], [-0.42552, 44.54029], [-0.42617, 44.54052], [-0.42619, 44.54088], [-0.42501, 44.54134], [-0.42464, 44.54254], [-0.42263, 44.54284], [-0.42131, 44.54498], [-0.42123, 44.54562], [-0.42179, 44.54634], [-0.42047, 44.54645], [-0.4202, 44.54726], [-0.41967, 44.54733], [-0.41823, 44.54872], [-0.41786, 44.54868], [-0.415, 44.55038], [-0.41361, 44.55078], [-0.41347, 44.55143], [-0.41377, 44.55162], [-0.41333, 44.55204], [-0.41251, 44.55199], [-0.41184, 44.55263], [-0.40822, 44.5534], [-0.40753, 44.55445], [-0.40654, 44.55451], [-0.40564, 44.55401], [-0.40445, 44.55526], [-0.40375, 44.55484], [-0.40181, 44.55556], [-0.40103, 44.55496], [-0.40056, 44.55527], [-0.39937, 44.55514], [-0.39785, 44.5556], [-0.39576, 44.55519], [-0.39509, 44.55592], [-0.39405, 44.55637], [-0.39276, 44.55572], [-0.39277, 44.55631], [-0.39171, 44.55652], [-0.38735, 44.5566], [-0.38519, 44.55618], [-0.38472, 44.55665], [-0.38438, 44.55593], [-0.38335, 44.55556], [-0.38259, 44.55595], [-0.38235, 44.55563], [-0.37897, 44.55692], [-0.37746, 44.55796], [-0.37664, 44.55758], [-0.37543, 44.55788], [-0.3747, 44.55771], [-0.37283, 44.55611], [-0.37193, 44.55467], [-0.37034, 44.55417], [-0.36888, 44.55283], [-0.36768, 44.55242], [-0.36658, 44.55246], [-0.36641, 44.55148], [-0.36533, 44.54977], [-0.36432, 44.5492], [-0.36333, 44.54909], [-0.36073, 44.54764], [-0.36161, 44.54712], [-0.36116, 44.54583], [-0.36196, 44.54473], [-0.36223, 44.54299], [-0.36146, 44.54138], [-0.36161, 44.54033], [-0.3645, 44.54036]]]}}]}