{"type": "FeatureCollection", "features": [{"type": "Feature", "properties": {"id": "LANDIRAS_2022_1", "nom": "Complexe de Landiras (départ du 12 juillet et reprise du 9 août 2022)", "surface_ha": 21439.3, "date_debut": "2022-07-12"}, "geometry": {"type": "Polygon", "coordinates": [[[-0.79044, 44.47266], [-0.78993, 44.47268], [-0.78903, 44.47214], [-0.78818, 44.47269], [-0.78854, 44.47435], [-0.78811, 44.47544], [-0.78717, 44.47612], [-0.78672, 44.47728], [-0.78679, 44.47808], [-0.78782, 44.4787], [-0.78812, 44.47941], [-0.78524, 44.48149], [-0.78398, 44.48153], [-0.78318, 44.48102], [-0.78073, 44.48183], [-0.7793, 44.48083], [-0.77879, 44.48083], [-0.77818, 44.48138], [-0.77897, 44.48189], [-0.77934, 44.48368], [-0.77885, 44.48387], [-0.77755, 44.48302], [-0.7766, 44.48369], [-0.77763, 44.48446], [-0.77767, 44.485], [-0.77628, 44.48621], [-0.7763, 44.48674], [-0.77804, 44.48768], [-0.77933, 44.48728], [-0.77986, 44.48762], [-0.77989, 44.48816], [-0.77965, 44.48835], [-0.77854, 44.48841], [-0.77794, 44.48889], [-0.77799, 44.48922], [-0.77875, 44.48983], [-0.77907, 44.4909], [-0.77839, 44.49136], [-0.7784, 44.49218], [-0.77747, 44.49304], [-0.7775, 44.49383], [-0.7766, 44.49427], [-0.77536, 44.49547], [-0.77615, 44.49622], [-0.77525, 44.49765], [-0.77552, 44.49805], [-0.77478, 44.49843], [-0.77363, 44.49814], [-0.7721, 44.49956], [-0.77244, 44.50058], [-0.77338, 44.50117], [-0.77386, 44.50113], [-0.77467, 44.50042], [-0.77568, 44.50039], [-0.77594, 44.50056], [-0.77601, 44.50164], [-0.77502, 44.50185], [-0.7741, 44.50137], [-0.77327, 44.50209], [-0.77163, 44.50274], [-0.76968, 44.50467], [-0.76977, 44.50539], [-0.77205, 44.50646], [-0.77211, 44.50736], [-0.77187, 44.50755], [-0.77101, 44.50759], [-0.77064, 44.50795], [-0.76999, 44.50801], [-0.76942, 44.50853], [-0.76892, 44.50855], [-0.76862, 44.50784], [-0.76886, 44.50765], [-0.76973, 44.50778], [-0.77037, 44.50715], [-0.7697, 44.50658], [-0.76877, 44.50639], [-0.76889, 44.50536], [-0.76808, 44.50495], [-0.76693, 44.50519], [-0.7659, 44.50451], [-0.76547, 44.50456], [-0.76491, 44.50508], [-0.76415, 44.50511], [-0.76231, 44.50391], [-0.7622, 44.50325], [-0.7611, 44.50253], [-0.76041, 44.50253], [-0.7595, 44.50326], [-0.76032, 44.50433], [-0.76036, 44.50487], [-0.7597, 44.50513], [-0.75748, 44.5069], [-0.75755, 44.50724], [-0.75854, 44.50782], [-0.75809, 44.50856], [-0.75586, 44.5074], [-0.75525, 44.50803], [-0.75609, 44.5088], [-0.75494, 44.50963], [-0.75466, 44.51012], [-0.75366, 44.51015], [-0.75248, 44.50932], [-0.75184, 44.50931], [-0.75089, 44.50881], [-0.7502, 44.50884], [-0.74723, 44.51116], [-0.74722, 44.51181], [-0.74626, 44.51256], [-0.7452, 44.51261], [-0.74453, 44.51298], [-0.74207, 44.51131], [-0.74138, 44.51111], [-0.74046, 44.50891], [-0.73933, 44.50798], [-0.73815, 44.50797], [-0.73719, 44.50765], [-0.73577, 44.50752], [-0.7349, 44.50821], [-0.73454, 44.51062], [-0.73404, 44.51106], [-0.73414, 44.51207], [-0.7315, 44.51415], [-0.73016, 44.51402], [-0.7293, 44.51468], [-0.72983, 44.51546], [-0.7299, 44.51625], [-0.7304, 44.51653], [-0.73047, 44.51761], [-0.72999, 44.51798], [-0.7285, 44.51821], [-0.72806, 44.51788], [-0.72717, 44.5179], [-0.72602, 44.51884], [-0.72527, 44.51886], [-0.72459, 44.51784], [-0.7237, 44.51801], [-0.72306, 44.51788], [-0.72268, 44.51835], [-0.72351, 44.51892], [-0.72355, 44.51964], [-0.72307, 44.52002], [-0.72258, 44.52004], [-0.72186, 44.51968], [-0.72042, 44.52033], [-0.71962, 44.52099], [-0.7197, 44.5223], [-0.71754, 44.52399], [-0.71531, 44.52461], [-0.71481, 44.52462], [-0.71384, 44.52412], [-0.71276, 44.52415], [-0.71206, 44.52382], [-0.71123, 44.52384], [-0.71053, 44.52334], [-0.70995, 44.52352], [-0.70969, 44.52335], [-0.70957, 44.52252], [-0.70897, 44.52214], [-0.70783, 44.52197], [-0.7072, 44.52165], [-0.70617, 44.52207], [-0.70422, 44.52361], [-0.70401, 44.52487], [-0.70471, 44.52532], [-0.70613, 44.52526], [-0.7072, 44.52443], [-0.70744, 44.52361], [-0.70844, 44.52358], [-0.70877, 44.5242], [-0.70979, 44.52497], [-0.70986, 44.52591], [-0.71012, 44.52605], [-0.70991, 44.52677], [-0.70918, 44.52716], [-0.70767, 44.52721], [-0.70706, 44.52684], [-0.70665, 44.52706], [-0.7059, 44.52709], [-0.70539, 44.52674], [-0.70514, 44.52693], [-0.70338, 44.52699], [-0.70298, 44.52667], [-0.70254, 44.52666], [-0.70191, 44.52712], [-0.70142, 44.52796], [-0.70028, 44.52821], [-0.69924, 44.52929], [-0.69873, 44.52913], [-0.69867, 44.52851], [-0.69793, 44.52807], [-0.6975, 44.52813], [-0.69693, 44.52865], [-0.69604, 44.52852], [-0.69497, 44.52943], [-0.69341, 44.52949], [-0.69298, 44.52986], [-0.69198, 44.5299], [-0.69132, 44.52941], [-0.69068, 44.5294], [-0.68863, 44.52803], [-0.68403, 44.52818], [-0.68332, 44.52856], [-0.68257, 44.52859], [-0.68211, 44.52825], [-0.68028, 44.5283], [-0.67901, 44.52799], [-0.67851, 44.52818], [-0.67802, 44.52784], [-0.6775, 44.52822], [-0.67625, 44.52826], [-0.67499, 44.52794], [-0.67272, 44.5282], [-0.67155, 44.52719], [-0.67064, 44.52718], [-0.66933, 44.52651], [-0.66925, 44.52554], [-0.66838, 44.52495], [-0.66772, 44.52494], [-0.66725, 44.5246], [-0.66645, 44.5248], [-0.66619, 44.52463], [-0.66687, 44.52375], [-0.66682, 44.52277], [-0.66511, 44.52162], [-0.66462, 44.52163], [-0.66425, 44.52199], [-0.66315, 44.52204], [-0.66227, 44.52259], [-0.66145, 44.52263], [-0.66128, 44.52281], [-0.66052, 44.52247], [-0.65977, 44.52286], [-0.65884, 44.52232], [-0.65825, 44.52273], [-0.65726, 44.52294], [-0.65707, 44.52277], [-0.65624, 44.52279], [-0.65467, 44.52195], [-0.65435, 44.52088], [-0.65599, 44.52004], [-0.65627, 44.51935], [-0.65561, 44.51888], [-0.65472, 44.5187], [-0.6554, 44.51803], [-0.65539, 44.51756], [-0.65485, 44.51689], [-0.65477, 44.51626], [-0.65349, 44.5155], [-0.65135, 44.51714], [-0.65142, 44.51748], [-0.65373, 44.51909], [-0.65326, 44.51942], [-0.6533, 44.52019], [-0.65215, 44.52121], [-0.65214, 44.52167], [-0.65091, 44.52269], [-0.6518, 44.5233], [-0.65343, 44.52217], [-0.65395, 44.52251], [-0.65404, 44.52348], [-0.65454, 44.52375], [-0.65415, 44.52557], [-0.6537, 44.52586], [-0.65301, 44.52741], [-0.65205, 44.52816], [-0.6513, 44.52819], [-0.65077, 44.52784], [-0.64954, 44.52824], [-0.6486, 44.52757], [-0.6475, 44.52795], [-0.64642, 44.52727], [-0.64554, 44.5279], [-0.64503, 44.52875], [-0.64428, 44.52878], [-0.64361, 44.52828], [-0.64203, 44.52796], [-0.64107, 44.52801], [-0.64026, 44.52866], [-0.64031, 44.5295], [-0.64083, 44.52997], [-0.64092, 44.53044], [-0.64242, 44.53119], [-0.64246, 44.53172], [-0.64077, 44.53327], [-0.6416, 44.53409], [-0.64111, 44.53429], [-0.63883, 44.53275], [-0.63736, 44.533], [-0.63657, 44.53363], [-0.63657, 44.53426], [-0.63589, 44.53473], [-0.63537, 44.53561], [-0.63646, 44.53643], [-0.63623, 44.53679], [-0.63548, 44.53682], [-0.63416, 44.53596], [-0.63511, 44.53505], [-0.63505, 44.53459], [-0.63429, 44.53397], [-0.6352, 44.53333], [-0.63545, 44.53278], [-0.63452, 44.53218], [-0.63342, 44.5322], [-0.63315, 44.53203], [-0.63331, 44.53154], [-0.63222, 44.53084], [-0.63141, 44.53062], [-0.63058, 44.53119], [-0.63137, 44.53173], [-0.63114, 44.53209], [-0.62927, 44.53181], [-0.62699, 44.53339], [-0.62774, 44.53401], [-0.62778, 44.53473], [-0.62754, 44.53492], [-0.6263, 44.53514], [-0.62602, 44.53479], [-0.6265, 44.53446], [-0.62641, 44.53377], [-0.62577, 44.53336], [-0.62494, 44.53356], [-0.62442, 44.5334], [-0.62406, 44.53258], [-0.622, 44.5315], [-0.62108, 44.5322], [-0.6216, 44.53259], [-0.62166, 44.53349], [-0.62098, 44.53477], [-0.61871, 44.53467], [-0.61804, 44.5343], [-0.61674, 44.53521], [-0.61817, 44.53628], [-0.61931, 44.53627], [-0.61984, 44.53661], [-0.61937, 44.53717], [-0.61812, 44.53721], [-0.61712, 44.53653], [-0.61658, 44.53672], [-0.61636, 44.53655], [-0.61553, 44.53657], [-0.61437, 44.53769], [-0.61336, 44.53773], [-0.6124, 44.5374], [-0.61006, 44.53729], [-0.60762, 44.53681], [-0.60659, 44.53748], [-0.60657, 44.53795], [-0.60608, 44.53814], [-0.60529, 44.53763], [-0.6052, 44.53698], [-0.60394, 44.53623], [-0.60391, 44.53569], [-0.60463, 44.53514], [-0.60383, 44.53443], [-0.6038, 44.53407], [-0.60493, 44.53204], [-0.60441, 44.53171], [-0.60432, 44.53073], [-0.60356, 44.5303], [-0.60328, 44.52976], [-0.60324, 44.52923], [-0.6037, 44.52879], [-0.60282, 44.52831], [-0.6022, 44.52872], [-0.60035, 44.52916], [-0.5998, 44.52958], [-0.5998, 44.5306], [-0.59889, 44.53124], [-0.59863, 44.5319], [-0.59722, 44.53273], [-0.59695, 44.53322], [-0.59643, 44.53305], [-0.59632, 44.53239], [-0.5939, 44.53099], [-0.59276, 44.53083], [-0.59228, 44.53049], [-0.59149, 44.53069], [-0.58932, 44.53062], [-0.58852, 44.53128], [-0.58862, 44.53267], [-0.5895, 44.53325], [-0.59014, 44.53326], [-0.59196, 44.5341], [-0.59053, 44.53541], [-0.58853, 44.53565], [-0.58723, 44.53479], [-0.58626, 44.53555], [-0.585, 44.53559], [-0.58329, 44.53493], [-0.58258, 44.53492], [-0.5811, 44.535], [-0.58022, 44.53574], [-0.57972, 44.53576], [-0.57868, 44.53525], [-0.57861, 44.5348], [-0.57787, 44.53438], [-0.57799, 44.53335], [-0.57638, 44.5323], [-0.57494, 44.53195], [-0.57442, 44.5316], [-0.57438, 44.53057], [-0.57356, 44.53001], [-0.57375, 44.52907], [-0.57323, 44.52876], [-0.57345, 44.52835], [-0.57292, 44.52787], [-0.57336, 44.52677], [-0.57532, 44.52599], [-0.57645, 44.52651], [-0.57733, 44.52592], [-0.57831, 44.52643], [-0.57973, 44.52619], [-0.58055, 44.52556], [-0.58056, 44.5251], [-0.58128, 44.52453], [-0.58195, 44.52446], [-0.58345, 44.52302], [-0.58385, 44.52297], [-0.58605, 44.52144], [-0.58682, 44.52057], [-0.58788, 44.52071], [-0.58832, 44.52034], [-0.58934, 44.52067], [-0.58817, 44.52194], [-0.5887, 44.52249], [-0.58886, 44.52387], [-0.59011, 44.52461], [-0.5913, 44.52367], [-0.5923, 44.52363], [-0.59401, 44.52463], [-0.59486, 44.52378], [-0.59422, 44.52309], [-0.59219, 44.52184], [-0.59213, 44.52094], [-0.5924, 44.52063], [-0.59203, 44.51994], [-0.59129, 44.51952], [-0.59148, 44.51861], [-0.5934, 44.51711], [-0.59502, 44.51667], [-0.59634, 44.51575], [-0.59728, 44.51574], [-0.59782, 44.51534], [-0.60022, 44.51505], [-0.60082, 44.51448], [-0.60051, 44.51399], [-0.60142, 44.51335], [-0.60144, 44.51302], [-0.60101, 44.51273], [-0.59967, 44.51276], [-0.59926, 44.51243], [-0.59814, 44.51227], [-0.59693, 44.51321], [-0.59611, 44.51324], [-0.59594, 44.51342], [-0.59543, 44.51344], [-0.59496, 44.5131], [-0.59263, 44.51299], [-0.59217, 44.51265], [-0.59137, 44.51285], [-0.59059, 44.51252], [-0.59078, 44.51173], [-0.59046, 44.51116], [-0.58963, 44.51061], [-0.58849, 44.51114], [-0.58682, 44.50998], [-0.58613, 44.50978], [-0.58611, 44.50892], [-0.58554, 44.50835], [-0.58674, 44.50741], [-0.58714, 44.50736], [-0.58868, 44.50627], [-0.58958, 44.50602], [-0.59037, 44.50537], [-0.58986, 44.50497], [-0.59004, 44.50418], [-0.58913, 44.50357], [-0.58815, 44.5036], [-0.5873, 44.50433], [-0.58659, 44.504], [-0.5857, 44.50403], [-0.58481, 44.50477], [-0.58431, 44.50479], [-0.58311, 44.5043], [-0.582, 44.50414], [-0.58193, 44.50352], [-0.58039, 44.50257], [-0.58031, 44.50194], [-0.57886, 44.50119], [-0.57528, 44.50148], [-0.57504, 44.50131], [-0.57074, 44.50127], [-0.56971, 44.50094], [-0.56822, 44.50135], [-0.56697, 44.50139], [-0.56664, 44.50122], [-0.56574, 44.50179], [-0.56501, 44.50092], [-0.56454, 44.50095], [-0.56419, 44.5013], [-0.56333, 44.50134], [-0.56297, 44.50164], [-0.56299, 44.50224], [-0.56204, 44.50293], [-0.56231, 44.50352], [-0.56068, 44.50453], [-0.56065, 44.5049], [-0.56129, 44.50533], [-0.56204, 44.50549], [-0.56382, 44.50392], [-0.56357, 44.50348], [-0.56382, 44.50329], [-0.56458, 44.50345], [-0.5651, 44.50379], [-0.56461, 44.50446], [-0.56543, 44.50504], [-0.56585, 44.50742], [-0.56662, 44.50789], [-0.56691, 44.50842], [-0.56578, 44.50866], [-0.56495, 44.50938], [-0.56395, 44.50941], [-0.56329, 44.5091], [-0.56223, 44.51019], [-0.5613, 44.51009], [-0.56004, 44.51135], [-0.56083, 44.51186], [-0.56041, 44.51315], [-0.56145, 44.51382], [-0.56159, 44.51502], [-0.56296, 44.51591], [-0.5636, 44.51591], [-0.56429, 44.51624], [-0.5651, 44.51569], [-0.56586, 44.51584], [-0.56589, 44.5162], [-0.56517, 44.51675], [-0.56519, 44.51762], [-0.56601, 44.51818], [-0.56606, 44.51889], [-0.56535, 44.5194], [-0.56512, 44.52], [-0.56539, 44.52036], [-0.56425, 44.52176], [-0.56425, 44.5222], [-0.56376, 44.5224], [-0.56284, 44.52191], [-0.56203, 44.52255], [-0.5618, 44.52336], [-0.55978, 44.52325], [-0.55898, 44.52255], [-0.5589, 44.52192], [-0.55796, 44.52133], [-0.5562, 44.52246], [-0.55594, 44.52228], [-0.55613, 44.5215], [-0.55551, 44.5212], [-0.55417, 44.52217], [-0.55315, 44.52184], [-0.5529, 44.52203], [-0.55128, 44.5221], [-0.55067, 44.52264], [-0.54977, 44.5227], [-0.54876, 44.52369], [-0.54877, 44.52404], [-0.54935, 44.52443], [-0.55003, 44.52446], [-0.55147, 44.52333], [-0.55224, 44.52349], [-0.5533, 44.52436], [-0.55338, 44.52499], [-0.55439, 44.52558], [-0.55495, 44.52647], [-0.5538, 44.52672], [-0.55229, 44.52811], [-0.55233, 44.52845], [-0.55294, 44.52885], [-0.55434, 44.52883], [-0.55461, 44.529], [-0.55508, 44.52863], [-0.55593, 44.52858], [-0.55776, 44.5271], [-0.55918, 44.52809], [-0.55984, 44.52811], [-0.56062, 44.52863], [-0.56066, 44.52917], [-0.55875, 44.53085], [-0.55834, 44.5309], [-0.5564, 44.53242], [-0.55614, 44.53346], [-0.55329, 44.53581], [-0.55308, 44.53668], [-0.55413, 44.53749], [-0.5532, 44.53815], [-0.55345, 44.53877], [-0.55253, 44.53942], [-0.55206, 44.54062], [-0.55042, 44.54201], [-0.55043, 44.54283], [-0.54975, 44.54349], [-0.54975, 44.54394], [-0.54835, 44.54535], [-0.54912, 44.54594], [-0.54914, 44.5463], [-0.54869, 44.54658], [-0.54844, 44.54722], [-0.54731, 44.54747], [-0.54629, 44.54826], [-0.54627, 44.54873], [-0.54535, 44.54957], [-0.5451, 44.55021], [-0.54463, 44.55052], [-0.54464, 44.55095], [-0.54371, 44.55181], [-0.54374, 44.55247], [-0.54427, 44.55312], [-0.54433, 44.55402], [-0.54409, 44.55421], [-0.5444, 44.5551], [-0.54353, 44.55534], [-0.54293, 44.55587], [-0.54243, 44.55589], [-0.54156, 44.55538], [-0.54069, 44.55606], [-0.54136, 44.55662], [-0.54221, 44.55643], [-0.54248, 44.55661], [-0.54254, 44.55768], [-0.54205, 44.55788], [-0.54104, 44.55719], [-0.54027, 44.55758], [-0.53899, 44.5569], [-0.53856, 44.55695], [-0.53776, 44.55762], [-0.53783, 44.55862], [-0.5386, 44.55907], [-0.53888, 44.55961], [-0.53845, 44.5607], [-0.53798, 44.56101], [-0.53802, 44.56135], [-0.53859, 44.56162], [-0.54127, 44.56151], [-0.54153, 44.56168], [-0.54156, 44.56204], [-0.54011, 44.56296], [-0.54017, 44.56361], [-0.54099, 44.56406], [-0.54166, 44.56366], [-0.5423, 44.56361], [-0.54386, 44.56251], [-0.54474, 44.56245], [-0.54533, 44.56195], [-0.54444, 44.56109], [-0.5435, 44.5609], [-0.54297, 44.56037], [-0.54289, 44.55974], [-0.54161, 44.5588], [-0.5421, 44.5586], [-0.54266, 44.55894], [-0.5431, 44.55857], [-0.54361, 44.55855], [-0.54503, 44.55889], [-0.54587, 44.55848], [-0.54665, 44.55881], [-0.54624, 44.56025], [-0.54651, 44.56063], [-0.54631, 44.56137], [-0.54686, 44.56223], [-0.54702, 44.56477], [-0.54759, 44.56582], [-0.54765, 44.56671], [-0.54719, 44.5672], [-0.5472, 44.56763], [-0.54483, 44.56921], [-0.54481, 44.56969], [-0.54387, 44.5708], [-0.54243, 44.57193], [-0.54182, 44.57196], [-0.54125, 44.57239], [-0.54124, 44.57305], [-0.5389, 44.5748], [-0.53886, 44.57528], [-0.53814, 44.57585], [-0.5374, 44.57551], [-0.53712, 44.5757], [-0.53486, 44.57577], [-0.53433, 44.57543], [-0.53333, 44.57564], [-0.53243, 44.57511], [-0.53205, 44.57532], [-0.53122, 44.57518], [-0.53057, 44.57573], [-0.52991, 44.57579], [-0.52839, 44.57699], [-0.52894, 44.57795], [-0.52869, 44.57813], [-0.5278, 44.57801], [-0.52582, 44.57936], [-0.52577, 44.57967], [-0.52484, 44.58032], [-0.52389, 44.58189], [-0.52246, 44.5832], [-0.51974, 44.58152], [-0.51933, 44.5815], [-0.51871, 44.58085], [-0.51707, 44.57996], [-0.5148, 44.58164], [-0.51286, 44.58048], [-0.51232, 44.58049], [-0.51151, 44.58112], [-0.51155, 44.58165], [-0.51217, 44.58206], [-0.51307, 44.58224], [-0.5136, 44.58276], [-0.51343, 44.58323], [-0.51429, 44.58379], [-0.51468, 44.58381], [-0.51548, 44.5845], [-0.51449, 44.58489], [-0.51068, 44.5852], [-0.51025, 44.58557], [-0.50837, 44.58584], [-0.50663, 44.58757], [-0.50663, 44.58821], [-0.50542, 44.58897], [-0.50459, 44.589], [-0.50441, 44.58918], [-0.50267, 44.58888], [-0.50189, 44.58908], [-0.50098, 44.58842], [-0.50034, 44.58841], [-0.49855, 44.58721], [-0.49671, 44.58726], [-0.4955, 44.58766], [-0.49374, 44.58772], [-0.49307, 44.58735], [-0.492, 44.58813], [-0.49117, 44.58816], [-0.49001, 44.58855], [-0.48868, 44.5886], [-0.48703, 44.58937], [-0.4862, 44.5894], [-0.48205, 44.59043], [-0.48129, 44.59027], [-0.48122, 44.58949], [-0.48035, 44.5889], [-0.47943, 44.58889], [-0.47904, 44.58857], [-0.4786, 44.58856], [-0.47797, 44.58902], [-0.4775, 44.59021], [-0.47704, 44.59051], [-0.4773, 44.59111], [-0.47706, 44.59131], [-0.47605, 44.59134], [-0.47579, 44.59117], [-0.47597, 44.59069], [-0.47419, 44.58977], [-0.47444, 44.58911], [-0.47396, 44.58871], [-0.47349, 44.58874], [-0.47292, 44.5892], [-0.47346, 44.59015], [-0.47297, 44.59035], [-0.47179, 44.58952], [-0.47115, 44.58951], [-0.47076, 44.58919], [-0.46986, 44.58901], [-0.46953, 44.58838], [-0.46905, 44.58813], [-0.47023, 44.58686], [-0.46944, 44.58632], [-0.46942, 44.58596], [-0.47038, 44.58522], [-0.46982, 44.58432], [-0.46973, 44.58334], [-0.46792, 44.58204], [-0.46787, 44.58132], [-0.46877, 44.58029], [-0.46708, 44.5792], [-0.46523, 44.57942], [-0.46445, 44.57891], [-0.46409, 44.57809], [-0.4631, 44.57751], [-0.46302, 44.57704], [-0.46151, 44.5763], [-0.46145, 44.57602], [-0.46063, 44.57547], [-0.45816, 44.57514], [-0.45631, 44.57375], [-0.45622, 44.57345], [-0.45358, 44.57189], [-0.45307, 44.57189], [-0.45269, 44.57225], [-0.45195, 44.57245], [-0.45075, 44.57143], [-0.45013, 44.57161], [-0.44971, 44.57128], [-0.4491, 44.57128], [-0.44884, 44.5711], [-0.449, 44.56995], [-0.44746, 44.56917], [-0.44741, 44.56858], [-0.44716, 44.56845], [-0.44636, 44.56406], [-0.44452, 44.56329], [-0.44384, 44.56369], [-0.44237, 44.5632], [-0.44182, 44.56357], [-0.44131, 44.56341], [-0.44219, 44.56122], [-0.44371, 44.56135], [-0.44439, 44.56171], [-0.44472, 44.5615], [-0.44584, 44.56145], [-0.44691, 44.56062], [-0.44689, 44.56027], [-0.4464, 44.56001], [-0.44635, 44.55929], [-0.44723, 44.5571], [-0.44771, 44.55673], [-0.44718, 44.55638], [-0.44704, 44.55404], [-0.44731, 44.55377], [-0.447, 44.55332], [-0.44791, 44.55268], [-0.44795, 44.55239], [-0.4494, 44.55144], [-0.45144, 44.55264], [-0.45199, 44.55244], [-0.45283, 44.55259], [-0.4537, 44.55191], [-0.45342, 44.55114], [-0.45365, 44.55098], [-0.45364, 44.55011], [-0.45307, 44.54953], [-0.45394, 44.54929], [-0.45447, 44.54889], [-0.4545, 44.54837], [-0.45306, 44.54739], [-0.45245, 44.54756], [-0.45218, 44.54739], [-0.45161, 44.54633], [-0.45255, 44.54566], [-0.45254, 44.54504], [-0.45345, 44.54381], [-0.45343, 44.54333], [-0.45226, 44.54255], [-0.45165, 44.54272], [-0.45138, 44.54255], [-0.45157, 44.54176], [-0.45045, 44.54101], [-0.44952, 44.54099], [-0.44798, 44.54049], [-0.44745, 44.54015], [-0.44743, 44.53979], [-0.44834, 44.53915], [-0.44884, 44.53813], [-0.45024, 44.53711], [-0.45026, 44.53664], [-0.45096, 44.53615], [-0.44993, 44.53539], [-0.45016, 44.53502], [-0.45066, 44.535], [-0.45154, 44.53551], [-0.45338, 44.53402], [-0.45487, 44.53487], [-0.45612, 44.53504], [-0.4569, 44.53454], [-0.45661, 44.53383], [-0.4556, 44.53323], [-0.45553, 44.53261], [-0.4545, 44.53182], [-0.45517, 44.53036], [-0.45564, 44.53003], [-0.45535, 44.52928], [-0.45562, 44.52904], [-0.45556, 44.52854], [-0.45603, 44.52799], [-0.45666, 44.52794], [-0.45746, 44.52732], [-0.45859, 44.52448], [-0.45931, 44.52392], [-0.46083, 44.52423], [-0.46108, 44.52405], [-0.4641, 44.52395], [-0.46436, 44.52413], [-0.46417, 44.52521], [-0.46327, 44.52661], [-0.46328, 44.52704], [-0.4628, 44.52737], [-0.46313, 44.52788], [-0.46476, 44.52877], [-0.46591, 44.52894], [-0.46634, 44.52927], [-0.46694, 44.52927], [-0.46783, 44.52992], [-0.46849, 44.52994], [-0.46895, 44.53028], [-0.46942, 44.53023], [-0.4707, 44.52922], [-0.47067, 44.52856], [-0.47014, 44.52809], [-0.47008, 44.52714], [-0.46941, 44.52668], [-0.46892, 44.52671], [-0.46808, 44.52725], [-0.46721, 44.5273], [-0.46684, 44.52765], [-0.46602, 44.52768], [-0.46584, 44.52786], [-0.46533, 44.5277], [-0.46596, 44.52573], [-0.46591, 44.52479], [-0.46641, 44.52414], [-0.46506, 44.5232], [-0.46498, 44.52256], [-0.46409, 44.52199], [-0.46298, 44.52218], [-0.46207, 44.52152], [-0.46131, 44.52149], [-0.46045, 44.52208], [-0.45959, 44.52213], [-0.45873, 44.52268], [-0.45847, 44.5225], [-0.45838, 44.52107], [-0.45862, 44.52088], [-0.45831, 44.51999], [-0.45853, 44.51974], [-0.45787, 44.5193], [-0.45701, 44.51931], [-0.45673, 44.51878], [-0.45742, 44.51811], [-0.45739, 44.51731], [-0.45808, 44.51621], [-0.45856, 44.51583], [-0.45921, 44.51578], [-0.45978, 44.51528], [-0.45887, 44.51459], [-0.45798, 44.51459], [-0.4577, 44.51406], [-0.4591, 44.51285], [-0.45911, 44.51239], [-0.46051, 44.51073], [-0.46267, 44.5091], [-0.46214, 44.50851], [-0.46261, 44.50799], [-0.46274, 44.50597], [-0.46367, 44.50512], [-0.46366, 44.5045], [-0.46413, 44.50398], [-0.46407, 44.50318], [-0.46355, 44.50271], [-0.46429, 44.50209], [-0.46396, 44.50125], [-0.4661, 44.49944], [-0.4663, 44.49829], [-0.467, 44.49738], [-0.46664, 44.49558], [-0.46708, 44.4953], [-0.4671, 44.495], [-0.46658, 44.49468], [-0.46655, 44.49414], [-0.46747, 44.49329], [-0.46795, 44.49252], [-0.46791, 44.49175], [-0.46883, 44.49092], [-0.46908, 44.49027], [-0.47057, 44.48987], [-0.47287, 44.48979], [-0.47494, 44.48916], [-0.47669, 44.48759], [-0.47669, 44.48715], [-0.47717, 44.4868], [-0.47689, 44.48624], [-0.47738, 44.48605], [-0.47828, 44.4867], [-0.47883, 44.48669], [-0.47963, 44.48604], [-0.47935, 44.48526], [-0.48054, 44.48415], [-0.48184, 44.48483], [-0.48186, 44.48518], [-0.48066, 44.4861], [-0.48162, 44.4868], [-0.48209, 44.48677], [-0.48293, 44.48623], [-0.48479, 44.48634], [-0.48638, 44.48528], [-0.48634, 44.48495], [-0.48558, 44.48435], [-0.48629, 44.48385], [-0.48626, 44.48306], [-0.48695, 44.48239], [-0.48692, 44.48172], [-0.48566, 44.48092], [-0.48466, 44.48167], [-0.48415, 44.48151], [-0.48412, 44.48097], [-0.48527, 44.48033], [-0.48527, 44.47994], [-0.48453, 44.47951], [-0.48179, 44.47996], [-0.48114, 44.47947], [-0.48024, 44.47929], [-0.48019, 44.47886], [-0.47968, 44.47841], [-0.48111, 44.4771], [-0.48076, 44.47595], [-0.47974, 44.47534], [-0.47994, 44.47443], [-0.48045, 44.47397], [-0.48035, 44.4736], [-0.47961, 44.47318], [-0.47959, 44.47282], [-0.48168, 44.47069], [-0.48169, 44.47023], [-0.4824, 44.46949], [-0.48466, 44.46942], [-0.48488, 44.46959], [-0.48618, 44.46955], [-0.48715, 44.46987], [-0.4877, 44.46968], [-0.48945, 44.46999], [-0.49223, 44.46972], [-0.49295, 44.47023], [-0.49554, 44.47033], [-0.49627, 44.47067], [-0.49782, 44.47062], [-0.49831, 44.47097], [-0.49924, 44.47072], [-0.50028, 44.46987], [-0.49995, 44.46839], [-0.50065, 44.46791], [-0.50035, 44.46676], [-0.50107, 44.4662], [-0.49976, 44.46533], [-0.49914, 44.46337], [-0.50006, 44.46272], [-0.50054, 44.46171], [-0.50197, 44.46084], [-0.50195, 44.46034], [-0.50144, 44.45988], [-0.50168, 44.45969], [-0.50225, 44.45984], [-0.50267, 44.45948], [-0.50342, 44.45945], [-0.50482, 44.45993], [-0.50706, 44.45838], [-0.50735, 44.45788], [-0.50785, 44.45787], [-0.50833, 44.45821], [-0.51002, 44.45813], [-0.51111, 44.45718], [-0.51081, 44.45687], [-0.51102, 44.45615], [-0.51073, 44.45561], [-0.51148, 44.45541], [-0.51217, 44.4557], [-0.51294, 44.45509], [-0.51338, 44.45373], [-0.51616, 44.45525], [-0.51724, 44.45505], [-0.51828, 44.45537], [-0.519, 44.45499], [-0.51927, 44.45534], [-0.51832, 44.45612], [-0.51954, 44.45694], [-0.52011, 44.45676], [-0.52102, 44.45724], [-0.52146, 44.45725], [-0.5221, 44.45678], [-0.52233, 44.45597], [-0.52298, 44.45615], [-0.52383, 44.45592], [-0.52449, 44.45641], [-0.52511, 44.45624], [-0.52645, 44.45691], [-0.52805, 44.45571], [-0.52804, 44.45532], [-0.52721, 44.45489], [-0.52656, 44.45529], [-0.5258, 44.45513], [-0.52506, 44.45534], [-0.52453, 44.45499], [-0.5254, 44.4528], [-0.52612, 44.45224], [-0.52754, 44.45324], [-0.5282, 44.45325], [-0.52915, 44.45411], [-0.53049, 44.45372], [-0.53101, 44.45389], [-0.53155, 44.45459], [-0.53088, 44.45504], [-0.53085, 44.45537], [-0.53176, 44.456], [-0.53306, 44.45613], [-0.53365, 44.45556], [-0.53333, 44.45489], [-0.53408, 44.45469], [-0.53448, 44.45502], [-0.53535, 44.45501], [-0.53588, 44.45535], [-0.53494, 44.45633], [-0.53661, 44.45745], [-0.53774, 44.45691], [-0.53874, 44.45688], [-0.5412, 44.45839], [-0.54211, 44.45839], [-0.54318, 44.45944], [-0.54323, 44.46019], [-0.54349, 44.46034], [-0.54333, 44.4615], [-0.54434, 44.46193], [-0.54576, 44.46299], [-0.54688, 44.46221], [-0.54851, 44.46194], [-0.54933, 44.46123], [-0.54983, 44.46121], [-0.55054, 44.46172], [-0.55163, 44.46169], [-0.55301, 44.46199], [-0.55365, 44.4614], [-0.55333, 44.46074], [-0.55429, 44.45999], [-0.55479, 44.45997], [-0.55729, 44.46149], [-0.55865, 44.46129], [-0.55906, 44.46162], [-0.55955, 44.46159], [-0.56011, 44.46115], [-0.5601, 44.4608], [-0.55952, 44.46051], [-0.55886, 44.46074], [-0.55834, 44.46039], [-0.55829, 44.45968], [-0.55878, 44.45948], [-0.5597, 44.45983], [-0.56025, 44.45954], [-0.55994, 44.45782], [-0.56183, 44.45621], [-0.56132, 44.45579], [-0.5613, 44.45543], [-0.56154, 44.45524], [-0.56239, 44.45539], [-0.56328, 44.45483], [-0.56379, 44.45499], [-0.56363, 44.45582], [-0.56542, 44.45692], [-0.56553, 44.45793], [-0.56691, 44.45883], [-0.56755, 44.45884], [-0.56965, 44.46021], [-0.56975, 44.4617], [-0.57044, 44.46216], [-0.57118, 44.4621], [-0.57246, 44.46084], [-0.57548, 44.46092], [-0.57668, 44.46141], [-0.57753, 44.4614], [-0.57949, 44.46204], [-0.58085, 44.46219], [-0.58113, 44.46272], [-0.58015, 44.46359], [-0.58082, 44.46413], [-0.58125, 44.46416], [-0.5817, 44.46378], [-0.58225, 44.46394], [-0.5827, 44.46357], [-0.58333, 44.46352], [-0.5844, 44.46261], [-0.585, 44.4628], [-0.58604, 44.46271], [-0.58804, 44.46134], [-0.5878, 44.4607], [-0.58879, 44.46049], [-0.58908, 44.46102], [-0.58789, 44.46213], [-0.58869, 44.46283], [-0.58776, 44.46349], [-0.58778, 44.46401], [-0.58898, 44.4648], [-0.58979, 44.46424], [-0.59029, 44.46422], [-0.59134, 44.46491], [-0.59093, 44.46637], [-0.59005, 44.4666], [-0.58923, 44.46728], [-0.5908, 44.46835], [-0.59084, 44.46889], [-0.59013, 44.46964], [-0.58913, 44.46967], [-0.58821, 44.46901], [-0.58551, 44.46816], [-0.58545, 44.46772], [-0.58443, 44.46712], [-0.58386, 44.46606], [-0.58435, 44.46586], [-0.58603, 44.46673], [-0.58691, 44.46602], [-0.58436, 44.46443], [-0.58386, 44.46447], [-0.58281, 44.46537], [-0.58231, 44.46538], [-0.58186, 44.46505], [-0.58115, 44.46509], [-0.58032, 44.46581], [-0.57969, 44.46586], [-0.57868, 44.46664], [-0.57864, 44.46713], [-0.58037, 44.46831], [-0.58086, 44.46829], [-0.58121, 44.46794], [-0.58173, 44.46811], [-0.58175, 44.46847], [-0.58125, 44.46896], [-0.58217, 44.46968], [-0.58309, 44.46969], [-0.58429, 44.47053], [-0.58539, 44.47033], [-0.58643, 44.47084], [-0.58676, 44.47163], [-0.58751, 44.47206], [-0.58758, 44.47269], [-0.5886, 44.47329], [-0.58815, 44.47421], [-0.58827, 44.47602], [-0.58883, 44.47689], [-0.58796, 44.47712], [-0.58739, 44.47757], [-0.58769, 44.4786], [-0.58888, 44.47939], [-0.58998, 44.47919], [-0.59125, 44.47969], [-0.59334, 44.47944], [-0.59442, 44.479], [-0.5952, 44.47835], [-0.59493, 44.47777], [-0.59516, 44.47763], [-0.59513, 44.47704], [-0.59563, 44.47662], [-0.59553, 44.47541], [-0.59601, 44.47503], [-0.59725, 44.47481], [-0.5987, 44.47545], [-0.59976, 44.47455], [-0.59944, 44.47394], [-0.59867, 44.47332], [-0.59963, 44.47257], [-0.60013, 44.47255], [-0.60086, 44.47307], [-0.60156, 44.47283], [-0.6033, 44.47146], [-0.60303, 44.47066], [-0.60327, 44.47047], [-0.60377, 44.47045], [-0.60491, 44.47113], [-0.60602, 44.4702], [-0.6069, 44.46996], [-0.60846, 44.46904], [-0.60947, 44.469], [-0.61115, 44.46982], [-0.61158, 44.46983], [-0.61202, 44.46946], [-0.61317, 44.46939], [-0.61395, 44.46877], [-0.6142, 44.46813], [-0.61512, 44.46805], [-0.6159, 44.4674], [-0.61586, 44.46663], [-0.61733, 44.46211], [-0.61729, 44.46136], [-0.61753, 44.46117], [-0.61914, 44.46129], [-0.62023, 44.46042], [-0.61992, 44.45958], [-0.61916, 44.45913], [-0.61913, 44.45878], [-0.62076, 44.45776], [-0.62104, 44.45709], [-0.62154, 44.45707], [-0.62198, 44.45741], [-0.62248, 44.45736], [-0.62301, 44.45693], [-0.62348, 44.45593], [-0.625, 44.45606], [-0.62706, 44.46068], [-0.62693, 44.46266], [-0.62719, 44.46284], [-0.62725, 44.46359], [-0.62779, 44.46426], [-0.6284, 44.46635], [-0.62898, 44.4671], [-0.62963, 44.46929], [-0.63106, 44.47208], [-0.6299, 44.47312], [-0.62993, 44.47395], [-0.6306, 44.47442], [-0.63171, 44.4744], [-0.63198, 44.47457], [-0.63314, 44.47706], [-0.63294, 44.47779], [-0.63153, 44.47727], [-0.63068, 44.47783], [-0.63155, 44.47884], [-0.63254, 44.47942], [-0.63259, 44.48014], [-0.6321, 44.48034], [-0.63139, 44.47983], [-0.63057, 44.48003], [-0.62997, 44.47988], [-0.62935, 44.48034], [-0.62914, 44.4812], [-0.63011, 44.48184], [-0.63244, 44.48177], [-0.63396, 44.48262], [-0.63557, 44.48238], [-0.63623, 44.482], [-0.63782, 44.48321], [-0.63784, 44.48357], [-0.63713, 44.48408], [-0.63743, 44.48503], [-0.63601, 44.48634], [-0.63509, 44.48679], [-0.63506, 44.48727], [-0.6346, 44.48756], [-0.63464, 44.48856], [-0.63491, 44.48889], [-0.63444, 44.48945], [-0.6319, 44.48899], [-0.63093, 44.48849], [-0.62985, 44.48852], [-0.62741, 44.48714], [-0.62701, 44.48735], [-0.6255, 44.4874], [-0.62491, 44.48707], [-0.62401, 44.48781], [-0.62317, 44.48767], [-0.6223, 44.48835], [-0.62318, 44.48906], [-0.62384, 44.48908], [-0.62515, 44.48976], [-0.6257, 44.49046], [-0.62577, 44.49141], [-0.62691, 44.49304], [-0.62869, 44.49397], [-0.62881, 44.49481], [-0.63109, 44.49605], [-0.63141, 44.49712], [-0.6307, 44.49771], [-0.63176, 44.49856], [-0.63179, 44.49909], [-0.63131, 44.49947], [-0.63081, 44.49948], [-0.63028, 44.49914], [-0.62973, 44.49844], [-0.62989, 44.49795], [-0.62902, 44.4974], [-0.62816, 44.49741], [-0.62781, 44.49677], [-0.62638, 44.49603], [-0.62398, 44.49593], [-0.62282, 44.49668], [-0.62158, 44.4969], [-0.61859, 44.49506], [-0.61741, 44.49488], [-0.61651, 44.49552], [-0.61624, 44.49618], [-0.61553, 44.49677], [-0.61751, 44.49792], [-0.61809, 44.49756], [-0.61935, 44.49752], [-0.62091, 44.49837], [-0.62097, 44.49927], [-0.62028, 44.50067], [-0.62268, 44.50227], [-0.62297, 44.50299], [-0.62257, 44.50348], [-0.62369, 44.50407], [-0.62446, 44.5036], [-0.62475, 44.50311], [-0.62526, 44.50327], [-0.62505, 44.5037], [-0.62583, 44.50433], [-0.62559, 44.50452], [-0.62422, 44.5044], [-0.62314, 44.50526], [-0.62318, 44.50593], [-0.62386, 44.50637], [-0.62458, 44.50633], [-0.62565, 44.50542], [-0.6271, 44.50594], [-0.62815, 44.50516], [-0.62882, 44.50509], [-0.62985, 44.50423], [-0.62959, 44.50403], [-0.6295, 44.50259], [-0.62973, 44.50238], [-0.62921, 44.50206], [-0.62919, 44.5017], [-0.63006, 44.50147], [-0.63114, 44.50073], [-0.63143, 44.50127], [-0.63047, 44.50204], [-0.63152, 44.5027], [-0.63158, 44.50331], [-0.63208, 44.50359], [-0.63213, 44.50431], [-0.63097, 44.50494], [-0.63072, 44.50597], [-0.62982, 44.50641], [-0.62906, 44.50719], [-0.62997, 44.50778], [-0.63108, 44.50759], [-0.63187, 44.5081], [-0.6317, 44.50924], [-0.6326, 44.50985], [-0.63346, 44.50931], [-0.63396, 44.50929], [-0.63468, 44.5098], [-0.63548, 44.5096], [-0.63625, 44.50976], [-0.63792, 44.51081], [-0.63878, 44.5103], [-0.63922, 44.50894], [-0.64053, 44.50962], [-0.64116, 44.50957], [-0.64248, 44.50865], [-0.6432, 44.50898], [-0.64502, 44.50893], [-0.64539, 44.50912], [-0.64601, 44.50871], [-0.64965, 44.50875], [-0.65049, 44.50807], [-0.65019, 44.50713], [-0.65043, 44.50695], [-0.65155, 44.50689], [-0.65238, 44.50622], [-0.6508, 44.50495], [-0.65127, 44.5044], [-0.65191, 44.50435], [-0.65249, 44.50381], [-0.65376, 44.50395], [-0.65424, 44.50358], [-0.65473, 44.50374], [-0.65805, 44.50363], [-0.65872, 44.50314], [-0.65869, 44.5028], [-0.6574, 44.50185], [-0.65735, 44.50095], [-0.65782, 44.50057], [-0.65994, 44.5003], [-0.66074, 44.49969], [-0.66069, 44.49826], [-0.65964, 44.49745], [-0.65961, 44.49709], [-0.6601, 44.49689], [-0.66052, 44.49722], [-0.6612, 44.49721], [-0.66209, 44.49648], [-0.6602, 44.49455], [-0.65959, 44.49322], [-0.65765, 44.49195], [-0.65703, 44.49213], [-0.65626, 44.49197], [-0.65059, 44.48821], [-0.65006, 44.48826], [-0.64783, 44.49009], [-0.64705, 44.48975], [-0.64702, 44.48922], [-0.65038, 44.48676], [-0.65173, 44.48634], [-0.6521, 44.48598], [-0.65273, 44.48593], [-0.65544, 44.484], [-0.65691, 44.48216], [-0.65582, 44.48135], [-0.65605, 44.48099], [-0.65718, 44.48151], [-0.65807, 44.4811], [-0.65887, 44.48161], [-0.66002, 44.48078], [-0.65999, 44.48055], [-0.65839, 44.47951], [-0.65747, 44.4795], [-0.65667, 44.4788], [-0.65716, 44.47861], [-0.65888, 44.47922], [-0.66034, 44.47807], [-0.66038, 44.47778], [-0.66178, 44.47694], [-0.6618, 44.47647], [-0.66268, 44.47623], [-0.66369, 44.47544], [-0.66368, 44.47442], [-0.66414, 44.47369], [-0.66464, 44.47367], [-0.66616, 44.4747], [-0.6667, 44.4745], [-0.66716, 44.47469], [-0.6677, 44.47429], [-0.66837, 44.47422], [-0.66916, 44.47356], [-0.66913, 44.4725], [-0.66872, 44.47213], [-0.66819, 44.47214], [-0.6676, 44.47267], [-0.66654, 44.47271], [-0.66635, 44.47289], [-0.66559, 44.47274], [-0.66701, 44.47143], [-0.66815, 44.47173], [-0.66948, 44.47063], [-0.67011, 44.47058], [-0.67118, 44.46967], [-0.67192, 44.46946], [-0.67506, 44.46952], [-0.67565, 44.46904], [-0.6756, 44.46808], [-0.67608, 44.4677], [-0.67794, 44.46707], [-0.67902, 44.46634], [-0.68343, 44.46457], [-0.68602, 44.46429], [-0.68763, 44.46335], [-0.68836, 44.46369], [-0.68915, 44.46348], [-0.68978, 44.4638], [-0.69063, 44.46307], [-0.69228, 44.4628], [-0.69376, 44.46164], [-0.69402, 44.46098], [-0.69479, 44.46131], [-0.69487, 44.4616], [-0.6958, 44.46217], [-0.69702, 44.46133], [-0.69677, 44.4607], [-0.69722, 44.46042], [-0.69721, 44.46007], [-0.69653, 44.45964], [-0.69596, 44.45983], [-0.69568, 44.45948], [-0.69612, 44.4586], [-0.69622, 44.45622], [-0.69708, 44.45414], [-0.69568, 44.45321], [-0.69502, 44.45319], [-0.69434, 44.45269], [-0.69299, 44.4529], [-0.69068, 44.45226], [-0.69066, 44.4519], [-0.69252, 44.45088], [-0.69309, 44.45024], [-0.6921, 44.44952], [-0.69077, 44.44973], [-0.68924, 44.44942], [-0.68897, 44.44924], [-0.68919, 44.4487], [-0.69138, 44.44755], [-0.6919, 44.44789], [-0.692, 44.44837], [-0.69314, 44.44892], [-0.69499, 44.44887], [-0.69525, 44.44904], [-0.69599, 44.44883], [-0.6967, 44.44916], [-0.69829, 44.4493], [-0.69908, 44.44982], [-0.6991, 44.45017], [-0.69811, 44.45099], [-0.69842, 44.45128], [-0.69818, 44.45196], [-0.69865, 44.45234], [-0.69914, 44.4523], [-0.70188, 44.45044], [-0.70363, 44.4502], [-0.709, 44.45324], [-0.71211, 44.45298], [-0.71271, 44.45313], [-0.71331, 44.45267], [-0.71379, 44.45166], [-0.71541, 44.44989], [-0.71585, 44.44853], [-0.71453, 44.44767], [-0.71498, 44.44679], [-0.71486, 44.44609], [-0.71401, 44.44554], [-0.71237, 44.4454], [-0.71083, 44.44491], [-0.71081, 44.44455], [-0.71175, 44.44386], [-0.71173, 44.44326], [-0.71391, 44.44192], [-0.71651, 44.4409], [-0.71779, 44.43981], [-0.71883, 44.43995], [-0.71929, 44.43958], [-0.72011, 44.43954], [-0.72028, 44.43936], [-0.72077, 44.43953], [-0.72255, 44.43947], [-0.72279, 44.43928], [-0.72411, 44.43923], [-0.726, 44.43845], [-0.72687, 44.4384], [-0.72771, 44.43767], [-0.72855, 44.43782], [-0.73279, 44.43658], [-0.73366, 44.43578], [-0.73283, 44.43515], [-0.73306, 44.43479], [-0.73432, 44.43492], [-0.7356, 44.43596], [-0.73865, 44.43568], [-0.73887, 44.43585], [-0.74017, 44.43581], [-0.74095, 44.43614], [-0.74216, 44.43556], [-0.74243, 44.43573], [-0.74226, 44.4367], [-0.74315, 44.4373], [-0.74478, 44.43709], [-0.74675, 44.43809], [-0.74773, 44.4381], [-0.74882, 44.43732], [-0.74974, 44.43731], [-0.75045, 44.43705], [-0.75151, 44.43614], [-0.75272, 44.43681], [-0.75369, 44.43676], [-0.75546, 44.43556], [-0.7547, 44.43495], [-0.75468, 44.43459], [-0.75566, 44.4342], [-0.75617, 44.43436], [-0.75624, 44.43482], [-0.75707, 44.43536], [-0.75775, 44.43539], [-0.75905, 44.43625], [-0.7593, 44.43606], [-0.7604, 44.43601], [-0.76128, 44.43545], [-0.76178, 44.43543], [-0.76275, 44.43596], [-0.76377, 44.43518], [-0.76579, 44.43529], [-0.76673, 44.43564], [-0.76778, 44.43487], [-0.76868, 44.43517], [-0.76951, 44.43445], [-0.77279, 44.43451], [-0.77342, 44.43499], [-0.77385, 44.43502], [-0.77478, 44.43427], [-0.77577, 44.43405], [-0.77763, 44.43543], [-0.77691, 44.43596], [-0.77701, 44.43743], [-0.77677, 44.43761], [-0.77705, 44.43815], [-0.7754, 44.4397], [-0.77636, 44.44033], [-0.77719, 44.44013], [-0.77903, 44.44133], [-0.77906, 44.44187], [-0.77811, 44.44258], [-0.77841, 44.44333], [-0.7777, 44.44385], [-0.77754, 44.44584], [-0.779, 44.44688], [-0.77965, 44.4469], [-0.78019, 44.44742], [-0.78021, 44.44778], [-0.77881, 44.44862], [-0.77882, 44.449], [-0.77956, 44.44942], [-0.78005, 44.44905], [-0.7808, 44.44902], [-0.78137, 44.45008], [-0.7809, 44.45046], [-0.78039, 44.45048], [-0.77972, 44.44998], [-0.77784, 44.44966], [-0.77685, 44.45024], [-0.77569, 44.44953], [-0.77482, 44.45026], [-0.77548, 44.45079], [-0.77745, 44.45166], [-0.7772, 44.45213], [-0.77759, 44.45251], [-0.77875, 44.45233], [-0.77902, 44.45251], [-0.77904, 44.45286], [-0.77858, 44.45329], [-0.77962, 44.45393], [-0.77964, 44.45429], [-0.77893, 44.45488], [-0.77998, 44.45554], [-0.78, 44.45589], [-0.77954, 44.4564], [-0.77959, 44.45735], [-0.77912, 44.45769], [-0.77945, 44.45897], [-0.77923, 44.45936], [-0.78082, 44.46055], [-0.78089, 44.46119], [-0.78218, 44.46213], [-0.78222, 44.46267], [-0.78174, 44.46303], [-0.78211, 44.46438], [-0.78303, 44.46497], [-0.7854, 44.46508], [-0.78618, 44.46542], [-0.78572, 44.46591], [-0.78578, 44.46626], [-0.78643, 44.46666], [-0.78725, 44.46646], [-0.78752, 44.46663], [-0.78754, 44.46699], [-0.78662, 44.46824], [-0.78669, 44.46907], [-0.78826, 44.47021], [-0.78835, 44.47051], [-0.78919, 44.47105], [-0.78957, 44.47107], [-0.79064, 44.47193], [-0.79044, 44.47266]], [[-0.47375, 44.58727], [-0.47283, 44.58804], [-0.47378, 44.58855], [-0.47454, 44.58807], [-0.47458, 44.58778], [-0.47375, 44.58727]]]}}]}