{"type": "FeatureCollection", "features": [{"type": "Feature", "properties": {"type": "PI", "carreau_dfci": "DE44K9", "source": "OpenStreetMap"}, "geometry": {"type": "Point", "coordinates": [-0.72516, 44.59046]}}, {"type": "Feature", "properties": {"type": "PI", "carreau_dfci": "DE46G0", "source": "OpenStreetMap"}, "geometry": {"type": "Point", "coordinates": [-0.76739, 44.60577]}}, {"type": "Feature", "properties": {"type": "PI", "carreau_dfci": "DE44H9", "source": "OpenStreetMap"}, "geometry": {"type": "Point", "coordinates": [-0.74039, 44.58612]}}, {"type": "Feature", "properties": {"type": "PI", "carreau_dfci": "DE44H9", "source": "OpenStreetMap"}, "geometry": {"type": "Point", "coordinates": [-0.73947, 44.58778]}}, {"type": "Feature", "properties": {"type": "PI", "carreau_dfci": "DE44H9", "source": "OpenStreetMap"}, "geometry": {"type": "Point", "coordinates": [-0.73792, 44.59044]}}, {"type": "Feature", "properties": {"type": "PI", "carreau_dfci": "DE44H9", "source": "OpenStreetMap"}, "geometry": {"type": "Point", "coordinates": [-0.7369, 44.59235]}}, {"type": "Feature", "properties": {"type": "PI", "carreau_dfci": "DE44F5", "source": "OpenStreetMap"}, "geometry": {"type": "Point", "coordinates": [-0.78869, 44.50824]}}, {"type": "Feature", "properties": {"type": "PI", "carreau_dfci": "DE44F5", "source": "OpenStreetMap"}, "geometry": {"type": "Point", "coordinates": [-0.79324, 44.50674]}}, {"type": "Feature", "properties": {"type": "PI", "carreau_dfci": "DE44F5", "source": "OpenStreetMap"}, "geometry": {"type": "Point", "coordinates": [-0.78249, 44.50759]}}, {"type": "Feature", "properties": {"type": "PI", "carreau_dfci": "DE44E5", "source": "OpenStreetMap"}, "geometry": {"type": "Point", "coordinates": [-0.80709, 44.50599]}}, {"type": "Feature", "properties": {"type": "PI", "carreau_dfci": "DE44D7", "source": "OpenStreetMap"}, "geometry": {"type": "Point", "coordinates": [-0.85393, 44.55187]}}, {"type": "Feature", "properties": {"type": "PI", "carreau_dfci": "DE44C7", "source": "OpenStreetMap"}, "geometry": {"type": "Point", "coordinates": [-0.85961, 44.5478]}}, {"type": "Feature", "properties": {"type": "PI", "carreau_dfci": "DE44C7", "source": "OpenStreetMap"}, "geometry": {"type": "Point", "coordinates": [-0.86675, 44.55164]}}, {"type": "Feature", "properties": {"type": "PI", "carreau_dfci": "DE44C7", "source": "OpenStreetMap"}, "geometry": {"type": "Point", "coordinates": [-0.86167, 44.55143]}}, {"type": "Feature", "properties": {"type": "PI", "carreau_dfci": "DE44C7", "source": "OpenStreetMap"}, "geometry": {"type": "Point", "coordinates": [-0.86111, 44.55032]}}, {"type": "Feature", "properties": {"type": "PI", "carreau_dfci": "DE44C7", "source": "OpenStreetMap"}, "geometry": {"type": "Point", "coordinates": [-0.86191, 44.55659]}}, {"type": "Feature", "properties": {"type": "PI", "carreau_dfci": "DE44D7", "source": "OpenStreetMap"}, "geometry": {"type": "Point", "coordinates": [-0.85816, 44.55684]}}, {"type": "Feature", "properties": {"type": "PI", "carreau_dfci": "DE44F5", "source": "OpenStreetMap"}, "geometry": {"type": "Point", "coordinates": [-0.79273, 44.51364]}}, {"type": "Feature", "properties": {"type": "PI", "carreau_dfci": "DE44F4", "source": "OpenStreetMap"}, "geometry": {"type": "Point", "coordinates": [-0.78951, 44.5024]}}, {"type": "Feature", "properties": {"type": "PI", "carreau_dfci": "DE44F4", "source": "OpenStreetMap"}, "geometry": {"type": "Point", "coordinates": [-0.79021, 44.49886]}}, {"type": "Feature", "properties": {"type": "PI", "carreau_dfci": "DE44F4", "source": "OpenStreetMap"}, "geometry": {"type": "Point", "coordinates": [-0.78966, 44.49546]}}, {"type": "Feature", "properties": {"type": "PI", "carreau_dfci": "DE44C7", "source": "OpenStreetMap"}, "geometry": {"type": "Point", "coordinates": [-0.86397, 44.54863]}}, {"type": "Feature", "properties": {"type": "PI", "carreau_dfci": "DE44D7", "source": "OpenStreetMap"}, "geometry": {"type": "Point", "coordinates": [-0.85563, 44.54667]}}, {"type": "Feature", "properties": {"type": "PI", "carreau_dfci": "DE44D7", "source": "OpenStreetMap"}, "geometry": {"type": "Point", "coordinates": [-0.85288, 44.54545]}}, {"type": "Feature", "properties": {"type": "PI", "carreau_dfci": "DE44D7", "source": "OpenStreetMap"}, "geometry": {"type": "Point", "coordinates": [-0.85597, 44.55721]}}, {"type": "Feature", "properties": {"type": "PI", "carreau_dfci": "DE44D7", "source": "OpenStreetMap"}, "geometry": {"type": "Point", "coordinates": [-0.85698, 44.55648]}}, {"type": "Feature", "properties": {"type": "PI", "carreau_dfci": "DE44D7", "source": "OpenStreetMap"}, "geometry": {"type": "Point", "coordinates": [-0.85852, 44.55171]}}, {"type": "Feature", "properties": {"type": "PI", "carreau_dfci": "DE44C7", "source": "OpenStreetMap"}, "geometry": {"type": "Point", "coordinates": [-0.86753, 44.55041]}}, {"type": "Feature", "properties": {"type": "PI", "carreau_dfci": "DE44C7", "source": "OpenStreetMap"}, "geometry": {"type": "Point", "coordinates": [-0.8645, 44.55143]}}, {"type": "Feature", "properties": {"type": "PI", "carreau_dfci": "DE44D7", "source": "OpenStreetMap"}, "geometry": {"type": "Point", "coordinates": [-0.85775, 44.5531]}}, {"type": "Feature", "properties": {"type": "PI", "carreau_dfci": "DE44C7", "source": "OpenStreetMap"}, "geometry": {"type": "Point", "coordinates": [-0.86544, 44.5571]}}, {"type": "Feature", "properties": {"type": "PI", "carreau_dfci": "DE44C7", "source": "OpenStreetMap"}, "geometry": {"type": "Point", "coordinates": [-0.86601, 44.55088]}}, {"type": "Feature", "properties": {"type": "PI", "carreau_dfci": "DE44D7", "source": "OpenStreetMap"}, "geometry": {"type": "Point", "coordinates": [-0.85467, 44.55752]}}, {"type": "Feature", "properties": {"type": "PI", "carreau_dfci": "DE44C7", "source": "OpenStreetMap"}, "geometry": {"type": "Point", "coordinates": [-0.86689, 44.55654]}}, {"type": "Feature", "properties": {"type": "PI", "carreau_dfci": "DE64B3", "source": "OpenStreetMap"}, "geometry": {"type": "Point", "coordinates": [-0.63973, 44.49259]}}, {"type": "Feature", "properties": {"type": "PI", "carreau_dfci": "DE64B3", "source": "OpenStreetMap"}, "geometry": {"type": "Point", "coordinates": [-0.63978, 44.49106]}}, {"type": "Feature", "properties": {"type": "PI", "carreau_dfci": "DE44G9", "source": "OpenStreetMap"}, "geometry": {"type": "Point", "coordinates": [-0.77631, 44.58524]}}, {"type": "Feature", "properties": {"type": "PI", "carreau_dfci": "DE44G9", "source": "OpenStreetMap"}, "geometry": {"type": "Point", "coordinates": [-0.77736, 44.58206]}}, {"type": "Feature", "properties": {"type": "PI", "carreau_dfci": "DE44G8", "source": "OpenStreetMap"}, "geometry": {"type": "Point", "coordinates": [-0.77832, 44.57861]}}, {"type": "Feature", "properties": {"type": "PI", "carreau_dfci": "DE44G8", "source": "OpenStreetMap"}, "geometry": {"type": "Point", "coordinates": [-0.77862, 44.57757]}}, {"type": "Feature", "properties": {"type": "PI", "carreau_dfci": "DE46G0", "source": "OpenStreetMap"}, "geometry": {"type": "Point", "coordinates": [-0.77074, 44.60386]}}, {"type": "Feature", "properties": {"type": "PI", "carreau_dfci": "DE44G8", "source": "OpenStreetMap"}, "geometry": {"type": "Point", "coordinates": [-0.77999, 44.5736]}}, {"type": "Feature", "properties": {"type": "PI", "carreau_dfci": "DE46G0", "source": "OpenStreetMap"}, "geometry": {"type": "Point", "coordinates": [-0.76918, 44.60264]}}, {"type": "Feature", "properties": {"type": "PI", "carreau_dfci": "DE46G0", "source": "OpenStreetMap"}, "geometry": {"type": "Point", "coordinates": [-0.76917, 44.6037]}}, {"type": "Feature", "properties": {"type": "PI", "carreau_dfci": "DE46G0", "source": "OpenStreetMap"}, "geometry": {"type": "Point", "coordinates": [-0.76871, 44.60025]}}, {"type": "Feature", "properties": {"type": "PI", "carreau_dfci": "DE44G9", "source": "OpenStreetMap"}, "geometry": {"type": "Point", "coordinates": [-0.76814, 44.59684]}}, {"type": "Feature", "properties": {"type": "PI", "carreau_dfci": "DE44G9", "source": "OpenStreetMap"}, "geometry": {"type": "Point", "coordinates": [-0.76991, 44.58452]}}, {"type": "Feature", "properties": {"type": "PI", "carreau_dfci": "DE44F4", "source": "OpenStreetMap"}, "geometry": {"type": "Point", "coordinates": [-0.78822, 44.50102]}}, {"type": "Feature", "properties": {"type": "PI", "carreau_dfci": "DE44F4", "source": "OpenStreetMap"}, "geometry": {"type": "Point", "coordinates": [-0.78337, 44.49576]}}, {"type": "Feature", "properties": {"type": "PI", "carreau_dfci": "DE44C7", "source": "OpenStreetMap"}, "geometry": {"type": "Point", "coordinates": [-0.86772, 44.54504]}}, {"type": "Feature", "properties": {"type": "PI", "carreau_dfci": "DE44D7", "source": "OpenStreetMap"}, "geometry": {"type": "Point", "coordinates": [-0.84581, 44.55267]}}, {"type": "Feature", "properties": {"type": "PI", "carreau_dfci": "DE44F3", "source": "OpenStreetMap"}, "geometry": {"type": "Point", "coordinates": [-0.79225, 44.4871]}}, {"type": "Feature", "properties": {"type": "PI", "carreau_dfci": "DE44F4", "source": "OpenStreetMap"}, "geometry": {"type": "Point", "coordinates": [-0.78081, 44.5003]}}, {"type": "Feature", "properties": {"type": "PI", "carreau_dfci": "DE44F4", "source": "OpenStreetMap"}, "geometry": {"type": "Point", "coordinates": [-0.79077, 44.49127]}}, {"type": "Feature", "properties": {"type": "PI", "carreau_dfci": "DE44F4", "source": "OpenStreetMap"}, "geometry": {"type": "Point", "coordinates": [-0.79662, 44.49069]}}, {"type": "Feature", "properties": {"type": "PI", "carreau_dfci": "DE44G4", "source": "OpenStreetMap"}, "geometry": {"type": "Point", "coordinates": [-0.77921, 44.49435]}}, {"type": "Feature", "properties": {"type": "PI", "carreau_dfci": "DE44G4", "source": "OpenStreetMap"}, "geometry": {"type": "Point", "coordinates": [-0.77782, 44.49814]}}, {"type": "Feature", "properties": {"type": "PI", "carreau_dfci": "DE44H3", "source": "OpenStreetMap"}, "geometry": {"type": "Point", "coordinates": [-0.73417, 44.47477]}}, {"type": "Feature", "properties": {"type": "PI", "carreau_dfci": "DE44H3", "source": "OpenStreetMap"}, "geometry": {"type": "Point", "coordinates": [-0.73395, 44.47514]}}, {"type": "Feature", "properties": {"type": "PI", "carreau_dfci": "DE44H3", "source": "OpenStreetMap"}, "geometry": {"type": "Point", "coordinates": [-0.73338, 44.47671]}}, {"type": "Feature", "properties": {"type": "PI", "carreau_dfci": "DE44H3", "source": "OpenStreetMap"}, "geometry": {"type": "Point", "coordinates": [-0.73287, 44.47701]}}, {"type": "Feature", "properties": {"type": "PI", "carreau_dfci": "DE64B3", "source": "OpenStreetMap"}, "geometry": {"type": "Point", "coordinates": [-0.64445, 44.49231]}}, {"type": "Feature", "properties": {"type": "PI", "carreau_dfci": "DE64B4", "source": "OpenStreetMap"}, "geometry": {"type": "Point", "coordinates": [-0.64536, 44.49544]}}, {"type": "Feature", "properties": {"type": "PI", "carreau_dfci": "DE64B4", "source": "OpenStreetMap"}, "geometry": {"type": "Point", "coordinates": [-0.64841, 44.4939]}}, {"type": "Feature", "properties": {"type": "PI", "carreau_dfci": "DE64A5", "source": "OpenStreetMap"}, "geometry": {"type": "Point", "coordinates": [-0.65814, 44.52468]}}, {"type": "Feature", "properties": {"type": "PI", "carreau_dfci": "DE64B5", "source": "OpenStreetMap"}, "geometry": {"type": "Point", "coordinates": [-0.65546, 44.52421]}}, {"type": "Feature", "properties": {"type": "PI", "carreau_dfci": "DE64B6", "source": "OpenStreetMap"}, "geometry": {"type": "Point", "coordinates": [-0.65221, 44.52845]}}, {"type": "Feature", "properties": {"type": "PI", "carreau_dfci": "DE64B6", "source": "OpenStreetMap"}, "geometry": {"type": "Point", "coordinates": [-0.65433, 44.52962]}}, {"type": "Feature", "properties": {"type": "PI", "carreau_dfci": "DE64A6", "source": "OpenStreetMap"}, "geometry": {"type": "Point", "coordinates": [-0.66585, 44.53113]}}, {"type": "Feature", "properties": {"type": "PI", "carreau_dfci": "DE44D7", "source": "OpenStreetMap"}, "geometry": {"type": "Point", "coordinates": [-0.84801, 44.55204]}}, {"type": "Feature", "properties": {"type": "PI", "carreau_dfci": "DE64B3", "source": "OpenStreetMap"}, "geometry": {"type": "Point", "coordinates": [-0.64768, 44.49171]}}, {"type": "Feature", "properties": {"type": "PI", "carreau_dfci": "DE64A5", "source": "OpenStreetMap"}, "geometry": {"type": "Point", "coordinates": [-0.65745, 44.52676]}}, {"type": "Feature", "properties": {"type": "PI", "carreau_dfci": "DE64B5", "source": "OpenStreetMap"}, "geometry": {"type": "Point", "coordinates": [-0.65425, 44.52585]}}, {"type": "Feature", "properties": {"type": "PI", "carreau_dfci": "DE86A0", "source": "OpenStreetMap"}, "geometry": {"type": "Point", "coordinates": [-0.43161, 44.62009]}}, {"type": "Feature", "properties": {"type": "PI", "carreau_dfci": "DE66F0", "source": "OpenStreetMap"}, "geometry": {"type": "Point", "coordinates": [-0.55338, 44.6069]}}, {"type": "Feature", "properties": {"type": "PI", "carreau_dfci": "DE64D8", "source": "OpenStreetMap"}, "geometry": {"type": "Point", "coordinates": [-0.59305, 44.5696]}}, {"type": "Feature", "properties": {"type": "PI", "carreau_dfci": "DE66F0", "source": "OpenStreetMap"}, "geometry": {"type": "Point", "coordinates": [-0.55418, 44.60552]}}, {"type": "Feature", "properties": {"type": "PI", "carreau_dfci": "DE66F0", "source": "OpenStreetMap"}, "geometry": {"type": "Point", "coordinates": [-0.55689, 44.60502]}}, {"type": "Feature", "properties": {"type": "PI", "carreau_dfci": "DE84C7", "source": "OpenStreetMap"}, "geometry": {"type": "Point", "coordinates": [-0.36007, 44.55991]}}, {"type": "Feature", "properties": {"type": "PI", "carreau_dfci": "DE84B7", "source": "OpenStreetMap"}, "geometry": {"type": "Point", "coordinates": [-0.38955, 44.56128]}}, {"type": "Feature", "properties": {"type": "PI", "carreau_dfci": "DE44F4", "source": "OpenStreetMap"}, "geometry": {"type": "Point", "coordinates": [-0.78483, 44.49781]}}, {"type": "Feature", "properties": {"type": "PI", "carreau_dfci": "DE44F4", "source": "OpenStreetMap"}, "geometry": {"type": "Point", "coordinates": [-0.78288, 44.4975]}}, {"type": "Feature", "properties": {"type": "PI", "carreau_dfci": "DE44F4", "source": "OpenStreetMap"}, "geometry": {"type": "Point", "coordinates": [-0.78207, 44.49744]}}, {"type": "Feature", "properties": {"type": "PI", "carreau_dfci": "DE44F4", "source": "OpenStreetMap"}, "geometry": {"type": "Point", "coordinates": [-0.78042, 44.49697]}}, {"type": "Feature", "properties": {"type": "PI", "carreau_dfci": "DE44G4", "source": "OpenStreetMap"}, "geometry": {"type": "Point", "coordinates": [-0.77776, 44.49612]}}, {"type": "Feature", "properties": {"type": "PI", "carreau_dfci": "DE42G9", "source": "OpenStreetMap"}, "geometry": {"type": "Point", "coordinates": [-0.75075, 44.41444]}}, {"type": "Feature", "properties": {"type": "PI", "carreau_dfci": "DE42F9", "source": "OpenStreetMap"}, "geometry": {"type": "Point", "coordinates": [-0.78335, 44.40206]}}, {"type": "Feature", "properties": {"type": "PI", "carreau_dfci": "DE42E9", "source": "OpenStreetMap"}, "geometry": {"type": "Point", "coordinates": [-0.82392, 44.40585]}}, {"type": "Feature", "properties": {"type": "PI", "carreau_dfci": "DE42E9", "source": "OpenStreetMap"}, "geometry": {"type": "Point", "coordinates": [-0.8247, 44.40694]}}, {"type": "Feature", "properties": {"type": "PI", "carreau_dfci": "DE42D9", "source": "OpenStreetMap"}, "geometry": {"type": "Point", "coordinates": [-0.82592, 44.40773]}}, {"type": "Feature", "properties": {"type": "PI", "carreau_dfci": "DE42D9", "source": "OpenStreetMap"}, "geometry": {"type": "Point", "coordinates": [-0.8277, 44.4099]}}, {"type": "Feature", "properties": {"type": "PI", "carreau_dfci": "DE42E9", "source": "OpenStreetMap"}, "geometry": {"type": "Point", "coordinates": [-0.82517, 44.40956]}}, {"type": "Feature", "properties": {"type": "PI", "carreau_dfci": "DE44D7", "source": "OpenStreetMap"}, "geometry": {"type": "Point", "coordinates": [-0.85448, 44.54889]}}, {"type": "Feature", "properties": {"type": "PI", "carreau_dfci": "DE44C7", "source": "OpenStreetMap"}, "geometry": {"type": "Point", "coordinates": [-0.86975, 44.54992]}}, {"type": "Feature", "properties": {"type": "PI", "carreau_dfci": "DE44H0", "source": "OpenStreetMap"}, "geometry": {"type": "Point", "coordinates": [-0.74487, 44.42799]}}, {"type": "Feature", "properties": {"type": "PI", "carreau_dfci": "DE44D7", "source": "OpenStreetMap"}, "geometry": {"type": "Point", "coordinates": [-0.84826, 44.5478]}}, {"type": "Feature", "properties": {"type": "PI", "carreau_dfci": "DE44K8", "source": "OpenStreetMap"}, "geometry": {"type": "Point", "coordinates": [-0.73119, 44.57925]}}, {"type": "Feature", "properties": {"type": "PI", "carreau_dfci": "DE64E4", "source": "OpenStreetMap"}, "geometry": {"type": "Point", "coordinates": [-0.5675, 44.51224]}}, {"type": "Feature", "properties": {"type": "PI", "carreau_dfci": "DE64L3", "source": "OpenStreetMap"}, "geometry": {"type": "Point", "coordinates": [-0.43876, 44.48536]}}, {"type": "Feature", "properties": {"type": "PI", "carreau_dfci": "DE64L3", "source": "OpenStreetMap"}, "geometry": {"type": "Point", "coordinates": [-0.44853, 44.48845]}}, {"type": "Feature", "properties": {"type": "PI", "carreau_dfci": "DE64L3", "source": "OpenStreetMap"}, "geometry": {"type": "Point", "coordinates": [-0.44768, 44.49051]}}, {"type": "Feature", "properties": {"type": "PI", "carreau_dfci": "DE64L3", "source": "OpenStreetMap"}, "geometry": {"type": "Point", "coordinates": [-0.44394, 44.48894]}}, {"type": "Feature", "properties": {"type": "PI", "carreau_dfci": "DE84C3", "source": "OpenStreetMap"}, "geometry": {"type": "Point", "coordinates": [-0.36212, 44.48989]}}, {"type": "Feature", "properties": {"type": "PI", "carreau_dfci": "DE44G5", "source": "OpenStreetMap"}, "geometry": {"type": "Point", "coordinates": [-0.77976, 44.50924]}}, {"type": "Feature", "properties": {"type": "PI", "carreau_dfci": "DE44G5", "source": "OpenStreetMap"}, "geometry": {"type": "Point", "coordinates": [-0.78005, 44.51316]}}, {"type": "Feature", "properties": {"type": "PI", "carreau_dfci": "DE44D7", "source": "OpenStreetMap"}, "geometry": {"type": "Point", "coordinates": [-0.8573, 44.54797]}}, {"type": "Feature", "properties": {"type": "PI", "carreau_dfci": "DE44F4", "source": "OpenStreetMap"}, "geometry": {"type": "Point", "coordinates": [-0.79162, 44.49281]}}, {"type": "Feature", "properties": {"type": "PI", "carreau_dfci": "DE44G4", "source": "OpenStreetMap"}, "geometry": {"type": "Point", "coordinates": [-0.7806, 44.504]}}, {"type": "Feature", "properties": {"type": "PI", "carreau_dfci": "DE64B6", "source": "OpenStreetMap"}, "geometry": {"type": "Point", "coordinates": [-0.64507, 44.54306]}}, {"type": "Feature", "properties": {"type": "PI", "carreau_dfci": "DE44E2", "source": "OpenStreetMap"}, "geometry": {"type": "Point", "coordinates": [-0.80449, 44.46988]}}, {"type": "Feature", "properties": {"type": "PI", "carreau_dfci": "DE44F4", "source": "OpenStreetMap"}, "geometry": {"type": "Point", "coordinates": [-0.79077, 44.50105]}}, {"type": "Feature", "properties": {"type": "PI", "carreau_dfci": "DE44G5", "source": "OpenStreetMap"}, "geometry": {"type": "Point", "coordinates": [-0.77988, 44.52339]}}, {"type": "Feature", "properties": {"type": "PI", "carreau_dfci": "DE44K9", "source": "OpenStreetMap"}, "geometry": {"type": "Point", "coordinates": [-0.73124, 44.59364]}}, {"type": "Feature", "properties": {"type": "PI", "carreau_dfci": "DE46G0", "source": "OpenStreetMap"}, "geometry": {"type": "Point", "coordinates": [-0.77139, 44.6075]}}, {"type": "Feature", "properties": {"type": "PI", "carreau_dfci": "DE46G0", "source": "OpenStreetMap"}, "geometry": {"type": "Point", "coordinates": [-0.78165, 44.61078]}}, {"type": "Feature", "properties": {"type": "PI", "carreau_dfci": "DE46F1", "source": "OpenStreetMap"}, "geometry": {"type": "Point", "coordinates": [-0.7915, 44.62076]}}, {"type": "Feature", "properties": {"type": "PI", "carreau_dfci": "DE44F4", "source": "OpenStreetMap"}, "geometry": {"type": "Point", "coordinates": [-0.78804, 44.50173]}}, {"type": "Feature", "properties": {"type": "PI", "carreau_dfci": "DE42D9", "source": "OpenStreetMap"}, "geometry": {"type": "Point", "coordinates": [-0.82695, 44.40482]}}, {"type": "Feature", "properties": {"type": "PI", "carreau_dfci": "DE44C8", "source": "OpenStreetMap"}, "geometry": {"type": "Point", "coordinates": [-0.86779, 44.56665]}}, {"type": "Feature", "properties": {"type": "PI", "carreau_dfci": "DE44D8", "source": "OpenStreetMap"}, "geometry": {"type": "Point", "coordinates": [-0.85458, 44.56004]}}, {"type": "Feature", "properties": {"type": "PI", "carreau_dfci": "DE44E6", "source": "OpenStreetMap"}, "geometry": {"type": "Point", "coordinates": [-0.81747, 44.52773]}}, {"type": "Feature", "properties": {"type": "PI", "carreau_dfci": "DE42L7", "source": "OpenStreetMap"}, "geometry": {"type": "Point", "coordinates": [-0.68161, 44.38033]}}, {"type": "Feature", "properties": {"type": "PI", "carreau_dfci": "DE44D7", "source": "OpenStreetMap"}, "geometry": {"type": "Point", "coordinates": [-0.85086, 44.54821]}}, {"type": "Feature", "properties": {"type": "PI", "carreau_dfci": "DE44C8", "source": "OpenStreetMap"}, "geometry": {"type": "Point", "coordinates": [-0.86722, 44.55832]}}, {"type": "Feature", "properties": {"type": "PI", "carreau_dfci": "DE44F4", "source": "OpenStreetMap"}, "geometry": {"type": "Point", "coordinates": [-0.78564, 44.49986]}}, {"type": "Feature", "properties": {"type": "PI", "carreau_dfci": "DE44D7", "source": "OpenStreetMap"}, "geometry": {"type": "Point", "coordinates": [-0.8536, 44.5476]}}, {"type": "Feature", "properties": {"type": "PI", "carreau_dfci": "DE44C7", "source": "OpenStreetMap"}, "geometry": {"type": "Point", "coordinates": [-0.86073, 44.54682]}}, {"type": "Feature", "properties": {"type": "CIT", "carreau_dfci": "DE44D8", "source": "OpenStreetMap"}, "geometry": {"type": "Point", "coordinates": [-0.85091, 44.57027]}}, {"type": "Feature", "properties": {"type": "PI", "carreau_dfci": "DE44C7", "source": "OpenStreetMap"}, "geometry": {"type": "Point", "coordinates": [-0.86285, 44.54577]}}, {"type": "Feature", "properties": {"type": "PI", "carreau_dfci": "DE46G0", "source": "OpenStreetMap"}, "geometry": {"type": "Point", "coordinates": [-0.7736, 44.60411]}}, {"type": "Feature", "properties": {"type": "PI", "carreau_dfci": "DE46H0", "source": "OpenStreetMap"}, "geometry": {"type": "Point", "coordinates": [-0.75978, 44.60024]}}, {"type": "Feature", "properties": {"type": "PI", "carreau_dfci": "DE44H9", "source": "OpenStreetMap"}, "geometry": {"type": "Point", "coordinates": [-0.7575, 44.59512]}}, {"type": "Feature", "properties": {"type": "PI", "carreau_dfci": "DE64C8", "source": "OpenStreetMap"}, "geometry": {"type": "Point", "coordinates": [-0.63199, 44.57438]}}, {"type": "Feature", "properties": {"type": "PI", "carreau_dfci": "DE64C8", "source": "OpenStreetMap"}, "geometry": {"type": "Point", "coordinates": [-0.62965, 44.57752]}}, {"type": "Feature", "properties": {"type": "PI", "carreau_dfci": "DE44K9", "source": "OpenStreetMap"}, "geometry": {"type": "Point", "coordinates": [-0.72896, 44.58219]}}, {"type": "Feature", "properties": {"type": "PI", "carreau_dfci": "DE44F3", "source": "OpenStreetMap"}, "geometry": {"type": "Point", "coordinates": [-0.79307, 44.47497]}}, {"type": "Feature", "properties": {"type": "PI", "carreau_dfci": "DE64A6", "source": "OpenStreetMap"}, "geometry": {"type": "Point", "coordinates": [-0.66216, 44.52843]}}, {"type": "Feature", "properties": {"type": "PI", "carreau_dfci": "DE64A5", "source": "OpenStreetMap"}, "geometry": {"type": "Point", "coordinates": [-0.6637, 44.52631]}}, {"type": "Feature", "properties": {"type": "PI", "carreau_dfci": "DE64A5", "source": "OpenStreetMap"}, "geometry": {"type": "Point", "coordinates": [-0.66478, 44.52666]}}, {"type": "Feature", "properties": {"type": "PI", "carreau_dfci": "DE64A5", "source": "OpenStreetMap"}, "geometry": {"type": "Point", "coordinates": [-0.66588, 44.52719]}}, {"type": "Feature", "properties": {"type": "PI", "carreau_dfci": "DE64A5", "source": "OpenStreetMap"}, "geometry": {"type": "Point", "coordinates": [-0.66883, 44.52725]}}, {"type": "Feature", "properties": {"type": "PI", "carreau_dfci": "DE44F4", "source": "OpenStreetMap"}, "geometry": {"type": "Point", "coordinates": [-0.78164, 44.49094]}}, {"type": "Feature", "properties": {"type": "PI", "carreau_dfci": "DE44F4", "source": "OpenStreetMap"}, "geometry": {"type": "Point", "coordinates": [-0.78021, 44.49223]}}, {"type": "Feature", "properties": {"type": "PI", "carreau_dfci": "DE44F4", "source": "OpenStreetMap"}, "geometry": {"type": "Point", "coordinates": [-0.78122, 44.49388]}}, {"type": "Feature", "properties": {"type": "PI", "carreau_dfci": "DE44F4", "source": "OpenStreetMap"}, "geometry": {"type": "Point", "coordinates": [-0.79142, 44.48917]}}, {"type": "Feature", "properties": {"type": "PI", "carreau_dfci": "DE44F4", "source": "OpenStreetMap"}, "geometry": {"type": "Point", "coordinates": [-0.78297, 44.50214]}}, {"type": "Feature", "properties": {"type": "PI", "carreau_dfci": "DE44F4", "source": "OpenStreetMap"}, "geometry": {"type": "Point", "coordinates": [-0.78753, 44.50241]}}, {"type": "Feature", "properties": {"type": "PI", "carreau_dfci": "DE44F4", "source": "OpenStreetMap"}, "geometry": {"type": "Point", "coordinates": [-0.78931, 44.50119]}}, {"type": "Feature", "properties": {"type": "PI", "carreau_dfci": "DE44F4", "source": "OpenStreetMap"}, "geometry": {"type": "Point", "coordinates": [-0.78734, 44.50497]}}, {"type": "Feature", "properties": {"type": "PI", "carreau_dfci": "DE44F5", "source": "OpenStreetMap"}, "geometry": {"type": "Point", "coordinates": [-0.79076, 44.51601]}}, {"type": "Feature", "properties": {"type": "PI", "carreau_dfci": "DE64B3", "source": "OpenStreetMap"}, "geometry": {"type": "Point", "coordinates": [-0.63397, 44.49254]}}, {"type": "Feature", "properties": {"type": "PI", "carreau_dfci": "DE64B3", "source": "OpenStreetMap"}, "geometry": {"type": "Point", "coordinates": [-0.63778, 44.49263]}}, {"type": "Feature", "properties": {"type": "PI", "carreau_dfci": "DE64B4", "source": "OpenStreetMap"}, "geometry": {"type": "Point", "coordinates": [-0.64714, 44.49426]}}, {"type": "Feature", "properties": {"type": "PI", "carreau_dfci": "DE42E8", "source": "OpenStreetMap"}, "geometry": {"type": "Point", "coordinates": [-0.81685, 44.39527]}}, {"type": "Feature", "properties": {"type": "PI", "carreau_dfci": "DE64E5", "source": "OpenStreetMap"}, "geometry": {"type": "Point", "coordinates": [-0.56718, 44.51509]}}, {"type": "Feature", "properties": {"type": "PI", "carreau_dfci": "DE64H6", "source": "OpenStreetMap"}, "geometry": {"type": "Point", "coordinates": [-0.50238, 44.54804]}}, {"type": "Feature", "properties": {"type": "PI", "carreau_dfci": "DE64G7", "source": "OpenStreetMap"}, "geometry": {"type": "Point", "coordinates": [-0.51117, 44.55415]}}, {"type": "Feature", "properties": {"type": "PI", "carreau_dfci": "DE64F9", "source": "OpenStreetMap"}, "geometry": {"type": "Point", "coordinates": [-0.54751, 44.59675]}}, {"type": "Feature", "properties": {"type": "PI", "carreau_dfci": "DE44F3", "source": "OpenStreetMap"}, "geometry": {"type": "Point", "coordinates": [-0.7836, 44.48798]}}, {"type": "Feature", "properties": {"type": "PI", "carreau_dfci": "DE44K9", "source": "OpenStreetMap"}, "geometry": {"type": "Point", "coordinates": [-0.73241, 44.58165]}}, {"type": "Feature", "properties": {"type": "PI", "carreau_dfci": "DE44K9", "source": "OpenStreetMap"}, "geometry": {"type": "Point", "coordinates": [-0.73166, 44.58299]}}, {"type": "Feature", "properties": {"type": "PI", "carreau_dfci": "DE46G0", "source": "OpenStreetMap"}, "geometry": {"type": "Point", "coordinates": [-0.7617, 44.60186]}}, {"type": "Feature", "properties": {"type": "PI", "carreau_dfci": "DE44D7", "source": "OpenStreetMap"}, "geometry": {"type": "Point", "coordinates": [-0.8566, 44.55511]}}, {"type": "Feature", "properties": {"type": "PI", "carreau_dfci": "DE44C7", "source": "OpenStreetMap"}, "geometry": {"type": "Point", "coordinates": [-0.86127, 44.54872]}}, {"type": "Feature", "properties": {"type": "PI", "carreau_dfci": "DE44G5", "source": "OpenStreetMap"}, "geometry": {"type": "Point", "coordinates": [-0.77792, 44.50715]}}, {"type": "Feature", "properties": {"type": "PI", "carreau_dfci": "DE44F3", "source": "OpenStreetMap"}, "geometry": {"type": "Point", "coordinates": [-0.79451, 44.48679]}}, {"type": "Feature", "properties": {"type": "PI", "carreau_dfci": "DE62A9", "source": "OpenStreetMap"}, "geometry": {"type": "Point", "coordinates": [-0.67242, 44.41282]}}, {"type": "Feature", "properties": {"type": "PI", "carreau_dfci": "DE62A9", "source": "OpenStreetMap"}, "geometry": {"type": "Point", "coordinates": [-0.67255, 44.41796]}}, {"type": "Feature", "properties": {"type": "PI", "carreau_dfci": "DE64H3", "source": "OpenStreetMap"}, "geometry": {"type": "Point", "coordinates": [-0.50296, 44.49485]}}, {"type": "Feature", "properties": {"type": "PI", "carreau_dfci": "DE64H3", "source": "OpenStreetMap"}, "geometry": {"type": "Point", "coordinates": [-0.49633, 44.49474]}}, {"type": "Feature", "properties": {"type": "PI", "carreau_dfci": "DE64H0", "source": "OpenStreetMap"}, "geometry": {"type": "Point", "coordinates": [-0.48742, 44.42685]}}, {"type": "Feature", "properties": {"type": "CIT", "carreau_dfci": "DE64K0", "source": "OpenStreetMap"}, "geometry": {"type": "Point", "coordinates": [-0.46843, 44.43201]}}, {"type": "Feature", "properties": {"type": "PI", "carreau_dfci": "DE64H0", "source": "OpenStreetMap"}, "geometry": {"type": "Point", "coordinates": [-0.47723, 44.43043]}}, {"type": "Feature", "properties": {"type": "PI", "carreau_dfci": "DE64H0", "source": "OpenStreetMap"}, "geometry": {"type": "Point", "coordinates": [-0.47762, 44.43148]}}, {"type": "Feature", "properties": {"type": "PI", "carreau_dfci": "DE64H0", "source": "OpenStreetMap"}, "geometry": {"type": "Point", "coordinates": [-0.4813, 44.42946]}}, {"type": "Feature", "properties": {"type": "PI", "carreau_dfci": "DE64H0", "source": "OpenStreetMap"}, "geometry": {"type": "Point", "coordinates": [-0.48252, 44.42783]}}, {"type": "Feature", "properties": {"type": "PI", "carreau_dfci": "DE64H0", "source": "OpenStreetMap"}, "geometry": {"type": "Point", "coordinates": [-0.48456, 44.42736]}}, {"type": "Feature", "properties": {"type": "PI", "carreau_dfci": "DE64H0", "source": "OpenStreetMap"}, "geometry": {"type": "Point", "coordinates": [-0.48699, 44.42886]}}, {"type": "Feature", "properties": {"type": "PI", "carreau_dfci": "DE44E6", "source": "OpenStreetMap"}, "geometry": {"type": "Point", "coordinates": [-0.83025, 44.53228]}}, {"type": "Feature", "properties": {"type": "CIT", "carreau_dfci": "DE44D4", "source": "OpenStreetMap"}, "geometry": {"type": "Point", "coordinates": [-0.83993, 44.50098]}}, {"type": "Feature", "properties": {"type": "CIT", "carreau_dfci": "DE44D4", "source": "OpenStreetMap"}, "geometry": {"type": "Point", "coordinates": [-0.84232, 44.50043]}}, {"type": "Feature", "properties": {"type": "PI", "carreau_dfci": "DE84A8", "source": "OpenStreetMap"}, "geometry": {"type": "Point", "coordinates": [-0.42086, 44.57119]}}, {"type": "Feature", "properties": {"type": "PI", "carreau_dfci": "DE84A7", "source": "OpenStreetMap"}, "geometry": {"type": "Point", "coordinates": [-0.419, 44.57011]}}, {"type": "Feature", "properties": {"type": "PI", "carreau_dfci": "DE84A7", "source": "OpenStreetMap"}, "geometry": {"type": "Point", "coordinates": [-0.41489, 44.5674]}}, {"type": "Feature", "properties": {"type": "PI", "carreau_dfci": "DE84A7", "source": "OpenStreetMap"}, "geometry": {"type": "Point", "coordinates": [-0.41745, 44.56429]}}, {"type": "Feature", "properties": {"type": "PI", "carreau_dfci": "DE86C0", "source": "OpenStreetMap"}, "geometry": {"type": "Point", "coordinates": [-0.36675, 44.62449]}}, {"type": "Feature", "properties": {"type": "PI", "carreau_dfci": "DE86C0", "source": "OpenStreetMap"}, "geometry": {"type": "Point", "coordinates": [-0.37167, 44.62101]}}, {"type": "Feature", "properties": {"type": "PI", "carreau_dfci": "DE64B4", "source": "OpenStreetMap"}, "geometry": {"type": "Point", "coordinates": [-0.63835, 44.49561]}}, {"type": "Feature", "properties": {"type": "PI", "carreau_dfci": "DE84A7", "source": "OpenStreetMap"}, "geometry": {"type": "Point", "coordinates": [-0.41902, 44.56493]}}, {"type": "Feature", "properties": {"type": "CIT", "carreau_dfci": "DE44G8", "source": "OpenStreetMap"}, "geometry": {"type": "Point", "coordinates": [-0.77267, 44.57453]}}, {"type": "Feature", "properties": {"type": "CIT", "carreau_dfci": "DE64E1", "source": "OpenStreetMap"}, "geometry": {"type": "Point", "coordinates": [-0.57222, 44.44749]}}, {"type": "Feature", "properties": {"type": "CIT", "carreau_dfci": "DE42L9", "source": "OpenStreetMap"}, "geometry": {"type": "Point", "coordinates": [-0.6795, 44.41814]}}, {"type": "Feature", "properties": {"type": "CIT", "carreau_dfci": "DE44D8", "source": "OpenStreetMap"}, "geometry": {"type": "Point", "coordinates": [-0.84221, 44.56695]}}, {"type": "Feature", "properties": {"type": "CIT", "carreau_dfci": "DE44G3", "source": "OpenStreetMap"}, "geometry": {"type": "Point", "coordinates": [-0.76334, 44.4714]}}, {"type": "Feature", "properties": {"type": "CIT", "carreau_dfci": "DE64A5", "source": "OpenStreetMap"}, "geometry": {"type": "Point", "coordinates": [-0.66482, 44.5266]}}, {"type": "Feature", "properties": {"type": "CIT", "carreau_dfci": "DE44F8", "source": "OpenStreetMap"}, "geometry": {"type": "Point", "coordinates": [-0.78674, 44.57823]}}, {"type": "Feature", "properties": {"type": "CIT", "carreau_dfci": "DE84A6", "source": "OpenStreetMap"}, "geometry": {"type": "Point", "coordinates": [-0.42833, 44.55136]}}, {"type": "Feature", "properties": {"type": "CIT", "carreau_dfci": "DE64L8", "source": "OpenStreetMap"}, "geometry": {"type": "Point", "coordinates": [-0.43431, 44.5727]}}, {"type": "Feature", "properties": {"type": "CIT", "carreau_dfci": "DE64L8", "source": "OpenStreetMap"}, "geometry": {"type": "Point", "coordinates": [-0.43404, 44.57256]}}, {"type": "Feature", "properties": {"type": "CIT", "carreau_dfci": "DE66D1", "source": "OpenStreetMap"}, "geometry": {"type": "Point", "coordinates": [-0.6032, 44.63684]}}, {"type": "Feature", "properties": {"type": "CIT", "carreau_dfci": "DE44E6", "source": "OpenStreetMap"}, "geometry": {"type": "Point", "coordinates": [-0.81746, 44.52671]}}]}